province,city,tel,name,district,origin_address,qq,shop_url,img_tel,source,address,source_url
上海,上海,18221496557,上海258鲜花,普陀区,嘉定区江桥镇曹安公路1777号美城广场B区一楼1038--1039--1040房间,1275888453,http://www.zhuandan.com/Stores/14930,,zhuandan.com,嘉定区江桥镇曹安公路1777号美城广场B区一楼1038--1039--1040房间,http://www.zhuandan.com/Stores/flowers?&p=1
广东,广州市,15018455963,广州越秀区二八花艺,越秀区,广州市越秀区水荫路12号,"546859605,297352000",http://www.zhuandan.com/Stores/12783,,zhuandan.com,水荫路12号,http://www.zhuandan.com/Stores/flowers?&p=1
上海,上海,18521535158,上海市长宁区馨艺鲜花,长宁区,上海市长宁区新泾镇淞虹路685弄绿园一村34号103,1102560144,http://www.zhuandan.com/Stores/13865,,zhuandan.com,新泾镇淞虹路685弄绿园一村34号103,http://www.zhuandan.com/Stores/flowers?&p=1
湖南,邵阳市,15807393366,邵阳双清区大圣花艺,双清区,"邵水东路48,49号产权处公交站牌旁大圣花艺",316282397,http://www.zhuandan.com/Stores/77812,,zhuandan.com,"邵水东路48,49号产权处公交站牌旁大圣花艺",http://www.zhuandan.com/Stores/flowers?&p=73
北京,北京,15136929949,北京朝阳区浪漫情缘鲜花店,朝阳区,北京市朝阳区酒仙桥,2020597878,http://www.zhuandan.com/Stores/14954,,zhuandan.com,酒仙桥,http://www.zhuandan.com/Stores/flowers?&p=1
广东,东莞市,19876964001,东莞莞城街道花阁鲜花店,莞城街道,中国银行花园支行旁,773493676,http://www.zhuandan.com/Stores/73718,,zhuandan.com,中国银行花园支行旁,http://www.zhuandan.com/Stores/flowers?&p=73
北京,北京,18710119960,北京朝阳区欧艺鲜花坊,朝阳区,北京市朝阳区惠新西街南口，天利宏市场,1711461047,http://www.zhuandan.com/Stores/11265,,zhuandan.com,惠新西街南口，天利宏市场,http://www.zhuandan.com/Stores/flowers?&p=1
内蒙古,包头市,15848255304,包头市东河区都市花乡鲜花,东河区,内蒙古包头市东河区东站街道,1552370971,http://www.zhuandan.com/Stores/49795,,zhuandan.com,东站街道,http://www.zhuandan.com/Stores/flowers?&p=69
青海,海西,13897091849,格尔木市春丽礼品店,格尔木市,昆仑路街道八一中路9-1号,,http://www.zhuandan.com/Stores/24584,,zhuandan.com,昆仑路街道八一中路9-1号,http://www.zhuandan.com/Stores/flowers?&p=73
广东,深圳市,15220222775,深圳福田区桐馨花店,福田区,南园街道滨河新村25栋,597161902,http://www.zhuandan.com/Stores/44150,,zhuandan.com,南园街道滨河新村25栋,http://www.zhuandan.com/Stores/flowers?&p=1
湖南,长沙市,17375805948,长沙岳麓区cuteflower花铺,岳麓区,望城坡街道大坝咀小区二期38栋,1208986632,http://www.zhuandan.com/Stores/86660,,zhuandan.com,望城坡街道大坝咀小区二期38栋,http://www.zhuandan.com/Stores/flowers?&p=69
上海,上海,13524147088,上海宝山区上大鲜花婚庆,宝山区,上海市宝山区大场镇聚丰园路469号祁连二村B街坊(祁中路与聚丰园路交叉口东侧14米),1396047692,http://www.zhuandan.com/Stores/30530,,zhuandan.com,大场镇聚丰园路469号祁连二村B街坊(祁中路与聚丰园路交叉口东侧14米),http://www.zhuandan.com/Stores/flowers?&p=74
重庆,重庆市,13350371875,重庆渝中区纤霖花艺有限责任公司,渝中区,重庆市渝中区解放碑街道大都会商厦大都会东方广场(正阳街与五一路交叉口西侧44米),514974802,http://www.zhuandan.com/Stores/57482,,zhuandan.com,解放碑街道大都会商厦大都会东方广场(正阳街与五一路交叉口西侧44米),http://www.zhuandan.com/Stores/flowers?&p=75
辽宁,沈阳市,13909825575,沈阳于洪区雅馨韵鲜花庆典,于洪区,辽宁省沈阳市于洪区陵西街道川江教师新村(长江北街与松山西路交叉口南侧278米),286876346,http://www.zhuandan.com/Stores/57104,,zhuandan.com,陵西街道川江教师新村(长江北街与松山西路交叉口南侧278米),http://www.zhuandan.com/Stores/flowers?&p=73
四川,成都市,15982243782,成都市武侯区幸福美鲜花,武侯区,成都市武侯区双丰中路263号附6-7号幸福美鲜花,"898146536,278186499",http://www.zhuandan.com/Stores/13546,,zhuandan.com,双丰中路263号附6-7号幸福美鲜花,http://www.zhuandan.com/Stores/flowers?&p=1
天津,天津,15620709284,天津和平区现鑫花店,和平区,气象台路37号,3384408092,http://www.zhuandan.com/Stores/22787,,zhuandan.com,气象台路37号,http://www.zhuandan.com/Stores/flowers?&p=70
山东,潍坊市,18053668179,潍坊奎文区叶子花艺,奎文区,蓉花路福海花园东门口对面,969874971,http://www.zhuandan.com/Stores/80279,,zhuandan.com,蓉花路福海花园东门口对面,http://www.zhuandan.com/Stores/flowers?&p=69
北京,北京,13439090533,北京东城区天梦之星花艺坊,东城区,北京市东城区和平里街道砖角楼北里5号,2873709659,http://www.zhuandan.com/Stores/62534,,zhuandan.com,和平里街道砖角楼北里5号,http://www.zhuandan.com/Stores/flowers?&p=74
辽宁,抚顺市,15898372692,抚顺新抚区心晴花艺,新抚区,西七路国家电网对面心晴花艺,791732906,http://www.zhuandan.com/Stores/69779,,zhuandan.com,西七路国家电网对面心晴花艺,http://www.zhuandan.com/Stores/flowers?&p=75
山东,济宁市,13053703771,济宁市任城区爱心鲜花店,任城区,山东省济宁市市中区树成鲜花精品店,451414317,http://www.zhuandan.com/Stores/1044,,zhuandan.com,中区树成鲜花精品店,http://www.zhuandan.com/Stores/flowers?&p=73
广东,深圳市,13631628230,深圳福田区久久鲜花,福田区,深圳市福田区福华一路中心商务大厦,1587809052,http://www.zhuandan.com/Stores/7629,,zhuandan.com,福华一路中心商务大厦,http://www.zhuandan.com/Stores/flowers?&p=1
湖南,长沙市,13087317193,长沙市芙蓉区鑫源鲜花批发,芙蓉区,文艺路街道人民中路中南大学湘雅二医院,754068540,http://www.zhuandan.com/Stores/37380,,zhuandan.com,文艺路街道人民中路中南大学湘雅二医院,http://www.zhuandan.com/Stores/flowers?&p=70
福建,厦门市,18506923073,厦门湖里区爱尚花艺,湖里区,兴隆路505-9,154538086,http://www.zhuandan.com/Stores/21040,,zhuandan.com,兴隆路505-9,http://www.zhuandan.com/Stores/flowers?&p=68
安徽,铜陵市,13866845980,铜陵市有家花店,铜官区,恒大绿洲5栋122,496483512,http://www.zhuandan.com/Stores/44649,,zhuandan.com,恒大绿洲5栋122,http://www.zhuandan.com/Stores/flowers?&p=71
福建,南平市,15105078617,南平市喜洋洋花屋,延平区,南平市八一路176号,395322361,http://www.zhuandan.com/Stores/7860,,zhuandan.com,八一路176号,http://www.zhuandan.com/Stores/flowers?&p=69
广东,广州市,13713724662,广州花都区创意花艺,花都区,广州市花都区茶园里南路西十一巷6号铺,990536196,http://www.zhuandan.com/Stores/36681,,zhuandan.com,茶园里南路西十一巷6号铺,http://www.zhuandan.com/Stores/flowers?&p=74
广东,深圳市,13510721807,深圳南山区怡雅花坊,南山区,留仙大道留仙洞悦方广场1号楼2楼D254商铺怡雅花坊(留仙洞悦方广场店),83960831,http://www.zhuandan.com/Stores/69783,,zhuandan.com,留仙大道留仙洞悦方广场1号楼2楼D254商铺怡雅花坊(留仙洞悦方广场店),http://www.zhuandan.com/Stores/flowers?&p=75
辽宁,大连市,15241838328,大连金州区锦上添花,金州区,辽宁省大连市金州区马桥子街道五彩东街,705101796,http://www.zhuandan.com/Stores/45602,,zhuandan.com,马桥子街道五彩东街,http://www.zhuandan.com/Stores/flowers?&p=73
广东,深圳市,18927408255,深圳罗湖区爱之意花坊,罗湖区,东门新园路14号东兴大厦,3515561248,http://www.zhuandan.com/Stores/28603,,zhuandan.com,东门新园路14号东兴大厦,http://www.zhuandan.com/Stores/flowers?&p=1
陕西,咸阳市,18291007495,咸阳渭城区澜庭花艺,渭城区,陕西省咸阳市渭城区渭阳街道东风路(长陵路与东风路交叉口北侧78米),1575682504,http://www.zhuandan.com/Stores/63649,,zhuandan.com,渭阳街道东风路(长陵路与东风路交叉口北侧78米),http://www.zhuandan.com/Stores/flowers?&p=66
山东,济南市,17661071220,济南历城区顾南衣鲜花店,历城区,甸柳庄63号,2151957287,http://www.zhuandan.com/Stores/70105,,zhuandan.com,甸柳庄63号,http://www.zhuandan.com/Stores/flowers?&p=64
重庆,重庆市,17623238847,重庆沙坪坝区慕秋花艺,沙坪坝区,沙坪坝万达,1481104821,http://www.zhuandan.com/Stores/82140,,zhuandan.com,沙坪坝万达,http://www.zhuandan.com/Stores/flowers?&p=67
辽宁,沈阳市,15998801536,沈阳市花汐沐花艺,沈河区,沈阳市沈河区新立堡路14号12门,148002613,http://www.zhuandan.com/Stores/29712,,zhuandan.com,新立堡路14号12门,http://www.zhuandan.com/Stores/flowers?&p=70
广东,广州市,18520272162,广州天河区花蜜花艺,天河区,石牌东路237号至245号广本宿舍,975367805,http://www.zhuandan.com/Stores/84530,,zhuandan.com,石牌东路237号至245号广本宿舍,http://www.zhuandan.com/Stores/flowers?&p=68
广东,东莞市,13018603875,东莞东城街道花美鲜花店,东城街道,广东省东莞市东城街道涡岭商业街26号120室,3353732134,http://www.zhuandan.com/Stores/82549,,zhuandan.com,涡岭商业街26号120室,http://www.zhuandan.com/Stores/flowers?&p=71
贵州,贵阳市,15085942101,贵阳观山湖区彩雲鲜花,观山湖区,彩云.鲜花,27260209,http://www.zhuandan.com/Stores/77754,,zhuandan.com,彩云.鲜花,http://www.zhuandan.com/Stores/flowers?&p=69
辽宁,大连市,15712393775,大连甘井子区伊莉亚鲜花,甘井子区,辽宁省大连市甘井子区泉水街道奥林园,584935203,http://www.zhuandan.com/Stores/45647,,zhuandan.com,泉水街道奥林园,http://www.zhuandan.com/Stores/flowers?&p=74
北京,北京,15611660078,北京平谷区牵手一生婚庆鲜花,平谷区,平谷南街南100米乐园西小区44号楼,1937130528,http://www.zhuandan.com/Stores/83610,,zhuandan.com,平谷南街南100米乐园西小区44号楼,http://www.zhuandan.com/Stores/flowers?&p=75
河北,石家庄市,13014353242,石家庄市朝阳花社,桥西区,石家庄市桥西区南二环西路268号西三教花卉市场e_2,565213146,http://www.zhuandan.com/Stores/11558,,zhuandan.com,南二环西路268号西三教花卉市场e_2,http://www.zhuandan.com/Stores/flowers?&p=73
北京,北京,18811424307,北京朝阳区速达鲜花,朝阳区,朝阳区南沙滩五建小区20号楼4单元102,804044829,http://www.zhuandan.com/Stores/33776,,zhuandan.com,南沙滩五建小区20号楼4单元102,http://www.zhuandan.com/Stores/flowers?&p=1
浙江,杭州市,15306591327,杭州余杭区初恋花店,余杭区,浙江省杭州市余杭区南苑街道河南埭路39-1,1509318252,http://www.zhuandan.com/Stores/80552,,zhuandan.com,南苑街道河南埭路39-1,http://www.zhuandan.com/Stores/flowers?&p=66
北京,北京,15600049479,北京昌平区霍营梅瑜花艺鲜花店,昌平区,梅瑜花艺(霍营店),937965097,http://www.zhuandan.com/Stores/79843,,zhuandan.com,梅瑜花艺(霍营店),http://www.zhuandan.com/Stores/flowers?&p=64
辽宁,沈阳市,15998392829,沈阳市千百艺鲜花庆典,苏家屯区,雪松路25号,2551466584,http://www.zhuandan.com/Stores/47324,,zhuandan.com,雪松路25号,http://www.zhuandan.com/Stores/flowers?&p=67
山东,济南市,13665316115,济南市市中区饰情花艺,市中区,山东省济南市市中区七贤街道南辛庄西路336-11号济南大学主校区(大学路与南辛庄西路交叉口北侧148米),290626186,http://www.zhuandan.com/Stores/44875,,zhuandan.com,中区七贤街道南辛庄西路336-11号济南大学主校区(大学路与南辛庄西路交叉口北侧148米),http://www.zhuandan.com/Stores/flowers?&p=65
山东,烟台市,15866369781,莱州市遇花园花艺,莱州市,文昌路街道文昌北路1491号明珠园(光州西街),729931881,http://www.zhuandan.com/Stores/48735,,zhuandan.com,文昌路街道文昌北路1491号明珠园(光州西街),http://www.zhuandan.com/Stores/flowers?&p=63
浙江,嘉兴市,13511394972,平湖市小蔡鲜花婚庆,平湖市,平湖市张湖街道人民东路157号中兴银行对面,1274277384,http://www.zhuandan.com/Stores/25083,,zhuandan.com,张湖街道人民东路157号中兴银行对面,http://www.zhuandan.com/Stores/flowers?&p=62
海南,海口市,13518881768,海口龙华区花唯美花艺,龙华区,龙昆北路47一5号铺面,350793672,http://www.zhuandan.com/Stores/71602,,zhuandan.com,龙昆北路47一5号铺面,http://www.zhuandan.com/Stores/flowers?&p=72
河北,沧州市,15930783632,沧州市慧然鲜花,运河区,经二路脑科医院斜对过,237958531,http://www.zhuandan.com/Stores/25373,,zhuandan.com,经二路脑科医院斜对过,http://www.zhuandan.com/Stores/flowers?&p=70
浙江,金华市,15024571056,浦江县欣馨花行,浦江县,浦阳街道东山路99号,649737666,http://www.zhuandan.com/Stores/67891,,zhuandan.com,浦阳街道东山路99号,http://www.zhuandan.com/Stores/flowers?&p=68
湖北,武汉市,13995518957,武汉洪山区米思花艺,洪山区,卓刀泉路238号(地铁2号线杨家湾站B出口旁)武汉皇后公园14号商铺米思花艺,2086485925,http://www.zhuandan.com/Stores/50050,,zhuandan.com,卓刀泉路238号(地铁2号线杨家湾站B出口旁)武汉皇后公园14号商铺米思花艺,http://www.zhuandan.com/Stores/flowers?&p=71
江苏,南京市,18013398067,南京市江宁区南京清迈花坊,江宁区,禄口街道鸣鹤路12号(禄口派出所对面)朗诗青春街区商铺51108,1352218112,http://www.zhuandan.com/Stores/65230,,zhuandan.com,禄口街道鸣鹤路12号(禄口派出所对面)朗诗青春街区商铺51108,http://www.zhuandan.com/Stores/flowers?&p=69
福建,厦门市,15985807353,厦门海沧区missrose花艺,海沧区,沧翔路556-9号,"849818293,443852793",http://www.zhuandan.com/Stores/33654,,zhuandan.com,沧翔路556-9号,http://www.zhuandan.com/Stores/flowers?&p=74
上海,上海,18217664962,上海市馨缘花艺服务中心,浦东新区,惠南镇通济路58号,2290714609,http://www.zhuandan.com/Stores/18589,,zhuandan.com,惠南镇通济路58号,http://www.zhuandan.com/Stores/flowers?&p=75
天津,天津,13821829266,天津滨海新区惜飞花屋,滨海新区,天津市滨海新区新港街道君景广场B座,3308411875,http://www.zhuandan.com/Stores/15661,,zhuandan.com,新港街道君景广场B座,http://www.zhuandan.com/Stores/flowers?&p=73
辽宁,丹东市,13898505225,丹东市小茹工作室,元宝区,官电街58号,370154754,http://www.zhuandan.com/Stores/42782,,zhuandan.com,官电街58号,http://www.zhuandan.com/Stores/flowers?&p=2222
山西,临汾市,13100071213,临汾尧都区告白花艺生活馆,尧都区,鼓楼南大街,469882319,http://www.zhuandan.com/Stores/77854,,zhuandan.com,鼓楼南大街,http://www.zhuandan.com/Stores/flowers?&p=2221
上海,上海,15800366317,上海宝山区花与花语,宝山区,高境镇共康东路163,,http://www.zhuandan.com/Stores/35208,,zhuandan.com,高境镇共康东路163,http://www.zhuandan.com/Stores/flowers?&p=61
福建,泉州市,15880903306,泉州丰泽区梓欣花艺,丰泽区,丰泽区田安路旧泰和酒店对面毅达花苑门口梓欣花艺,917271489,http://www.zhuandan.com/Stores/83741,,zhuandan.com,田安路旧泰和酒店对面毅达花苑门口梓欣花艺,http://www.zhuandan.com/Stores/flowers?&p=2220
山东,淄博市,13280662424,淄博市香榭花舍,张店区,山东省淄博市张店区联通路76-6号,"2628816788,389845787",http://www.zhuandan.com/Stores/9391,,zhuandan.com,联通路76-6号,http://www.zhuandan.com/Stores/flowers?&p=66
北京,北京,13261299370,北京门头沟区宝丽鲜花,门头沟区,北京市门头沟区永定镇祥福斋饭店远洋新天地(建设中)(泰安路与上园路交叉口东侧435米),3055193040,http://www.zhuandan.com/Stores/67830,,zhuandan.com,永定镇祥福斋饭店远洋新天地(建设中)(泰安路与上园路交叉口东侧435米),http://www.zhuandan.com/Stores/flowers?&p=64
黑龙江,大庆市,18245888808,大庆萨尔图区真爱鲜花蛋糕,萨尔图区,黑龙江省大庆市萨尔图区经六街172号,519543456,http://www.zhuandan.com/Stores/12795,,zhuandan.com,经六街172号,http://www.zhuandan.com/Stores/flowers?&p=67
北京,北京,13886430339,北京朝阳区雅兰花屋,朝阳区,金盏乡皮村114号,871452384,http://www.zhuandan.com/Stores/53579,,zhuandan.com,金盏乡皮村114号,http://www.zhuandan.com/Stores/flowers?&p=65
重庆,重庆市,13635367749,重庆沙坪坝区梦鹿花艺,沙坪坝区,沙坪坝区优活城4期6栋2单元1004,374504330,http://www.zhuandan.com/Stores/65119,,zhuandan.com,优活城4期6栋2单元1004,http://www.zhuandan.com/Stores/flowers?&p=63
浙江,杭州市,13868192207,杭州滨江区拾贰花艺,滨江区,浙江省杭州市滨江区长河街道绿香街38号铂金名筑(南环路与支四路交叉口东侧176米),594269640,http://www.zhuandan.com/Stores/73984,,zhuandan.com,长河街道绿香街38号铂金名筑(南环路与支四路交叉口东侧176米),http://www.zhuandan.com/Stores/flowers?&p=62
北京,北京,13269269668,北京顺义区晨花北季鲜花店,顺义区,北京市顺义区后沙峪镇海航国兴城北区4号楼,283588463,http://www.zhuandan.com/Stores/35511,,zhuandan.com,后沙峪镇海航国兴城北区4号楼,http://www.zhuandan.com/Stores/flowers?&p=72
广东,广州市,15820215436,广州市天河区鲜花一束,天河区,天河区龙洞聚贤小区四巷二号对面幸福花屋店,3474453716,http://www.zhuandan.com/Stores/47137,,zhuandan.com,龙洞聚贤小区四巷二号对面幸福花屋店,http://www.zhuandan.com/Stores/flowers?&p=70
安徽,蚌埠市,18900520310,蚌埠市蔷薇公主花房,禹会区,蚌埠市禹会区吴湾路458号,"3274326662,2627108278",http://www.zhuandan.com/Stores/16186,,zhuandan.com,吴湾路458号,http://www.zhuandan.com/Stores/flowers?&p=68
山东,青岛市,18663998810,青岛李沧区尚品花艺,李沧区,山东省青岛市李沧区浮山路街道重庆中路69-70号李村大集农贸市场(青山路与重庆中路辅路交叉口东南方向217米),472857517,http://www.zhuandan.com/Stores/23172,,zhuandan.com,浮山路街道重庆中路69-70号李村大集农贸市场(青山路与重庆中路辅路交叉口东南方向217米),http://www.zhuandan.com/Stores/flowers?&p=71
安徽,淮南市,18955427267,淮南市百合香,田家庵区,淮南市田家庵区龙湖南路3号,1535321281,http://www.zhuandan.com/Stores/5587,,zhuandan.com,龙湖南路3号,http://www.zhuandan.com/Stores/flowers?&p=69
天津,天津,15822918188,天津滨海新区爱尚阳光花艺鲜花店,滨海新区,天津市滨海新区大沽街道王中华骨健康馆(万年桥北路)塘沽盐场小学(响螺湾医院北)(桥宏街与万年桥北路交叉口西北方向24米),2311075251,http://www.zhuandan.com/Stores/58486,,zhuandan.com,大沽街道王中华骨健康馆(万年桥北路)塘沽盐场小学(响螺湾医院北)(桥宏街与万年桥北路交叉口西北方向24米),http://www.zhuandan.com/Stores/flowers?&p=74
湖南,衡阳市,15364256878,耒阳市千紫红花艺,耒阳市,耒阳市蔡伦北路106号,413080187,http://www.zhuandan.com/Stores/15264,,zhuandan.com,蔡伦北路106号,http://www.zhuandan.com/Stores/flowers?&p=75
上海,上海,15026653468,上海浦东新区玫瑰之约花坊,浦东新区,牌楼东路80号,1012790897,http://www.zhuandan.com/Stores/25911,,zhuandan.com,牌楼东路80号,http://www.zhuandan.com/Stores/flowers?&p=73
广东,佛山市,15118585443,佛山顺德区爱美之心花店,顺德区,裕成二路2号琅日饭堂,,http://www.zhuandan.com/Stores/55582,,zhuandan.com,裕成二路2号琅日饭堂,http://www.zhuandan.com/Stores/flowers?&p=2222
湖北,武汉市,13871593340,武汉洪山区原野花艺体验店,洪山区,光谷步行街,984939656,http://www.zhuandan.com/Stores/78622,,zhuandan.com,光谷步行街,http://www.zhuandan.com/Stores/flowers?&p=2221
江苏,扬州市,15152797650,仪征市优雅花艺,仪征市,工农北路136号,1009650372,http://www.zhuandan.com/Stores/19345,,zhuandan.com,工农北路136号,http://www.zhuandan.com/Stores/flowers?&p=61
陕西,渭南市,17762208532,渭南临渭区朵田花艺工作室,临渭区,朵田花艺工作室,493443818,http://www.zhuandan.com/Stores/84509,,zhuandan.com,朵田花艺工作室,http://www.zhuandan.com/Stores/flowers?&p=2220
吉林,长春市,15844067718,长春南关区小虎牙儿鲜花,南关区,大经路与东四道街交汇,928409510,http://www.zhuandan.com/Stores/23836,,zhuandan.com,大经路与东四道街交汇,http://www.zhuandan.com/Stores/flowers?&p=2219
江西,赣州市,15070798395,信丰县花间密码花艺馆,信丰县,嘉定镇中侨路花果山小区,469194340,http://www.zhuandan.com/Stores/73244,,zhuandan.com,嘉定镇中侨路花果山小区,http://www.zhuandan.com/Stores/flowers?&p=2218
四川,绵阳市,18281987689,绵阳涪城区麦穗雅花艺,涪城区,涪城区一环路南段230号麦穗雅花艺,640574053,http://www.zhuandan.com/Stores/24858,,zhuandan.com,一环路南段230号麦穗雅花艺,http://www.zhuandan.com/Stores/flowers?&p=2217
重庆,重庆市,18723410433,重庆南岸区玫色花艺馆,南岸区,福民路39号附139号玫色花艺馆,1098818076,http://www.zhuandan.com/Stores/24089,,zhuandan.com,福民路39号附139号玫色花艺馆,http://www.zhuandan.com/Stores/flowers?&p=2216
江苏,宿迁市,15751598737,宿迁市花田喜事婚庆花艺,宿城区,义乌商贸城精品二期21号,2719289935,http://www.zhuandan.com/Stores/30897,,zhuandan.com,义乌商贸城精品二期21号,http://www.zhuandan.com/Stores/flowers?&p=66
辽宁,沈阳市,13514253636,沈阳市小旭花艺工作室,和平区,辽宁省沈阳市和平区太原街街道夜未央Disco中山公园(和平南大街),629269399,http://www.zhuandan.com/Stores/38906,,zhuandan.com,太原街街道夜未央Disco中山公园(和平南大街),http://www.zhuandan.com/Stores/flowers?&p=64
江苏,南京市,13062517906,南京栖霞区豪庭花坊,栖霞区,和燕路388号4号,1154507350,http://www.zhuandan.com/Stores/36608,,zhuandan.com,和燕路388号4号,http://www.zhuandan.com/Stores/flowers?&p=67
河南,安阳市,15226174888,安阳欢乐送鲜花商行,文峰区,河南省安阳市文峰区开发区商颂大街街道文鼎路安阳师范学院北区,997750579,http://www.zhuandan.com/Stores/25420,,zhuandan.com,开发区商颂大街街道文鼎路安阳师范学院北区,http://www.zhuandan.com/Stores/flowers?&p=65
北京,北京,17611620680,北京朝阳区花骑士花坊,朝阳区,马泉营,1318117666,http://www.zhuandan.com/Stores/49251,,zhuandan.com,马泉营,http://www.zhuandan.com/Stores/flowers?&p=63
山东,菏泽市,15552309962,菏泽爱唯一花艺,牡丹区,菏泽市中山路与人民路交叉口东100米路北,772031593,http://www.zhuandan.com/Stores/18184,,zhuandan.com,中山路与人民路交叉口东100米路北,http://www.zhuandan.com/Stores/flowers?&p=62
四川,成都市,13088098887,成都武侯区绿野仙踪花艺,武侯区,成都市武侯区郭家桥正街1号,8085111,http://www.zhuandan.com/Stores/191,,zhuandan.com,郭家桥正街1号,http://www.zhuandan.com/Stores/flowers?&p=72
广东,深圳市,13028802339,深圳龙岗区迎春鲜花店,龙岗区,深圳龙岗坪山新区迎春路２８,670829122,http://www.zhuandan.com/Stores/6436,,zhuandan.com,深圳龙岗坪山新区迎春路２８,http://www.zhuandan.com/Stores/flowers?&p=70
江苏,南通市,13646191561,如皋市久久花卉,如皋市,如皋市宁海路209号久久花卉（人民医院西侧100米路南）,740393440,http://www.zhuandan.com/Stores/7743,,zhuandan.com,宁海路209号久久花卉（人民医院西侧100米路南）,http://www.zhuandan.com/Stores/flowers?&p=68
广东,广州市,13632348779,广州从化区尚心花店,从化区,宏兴大厦,326252442,http://www.zhuandan.com/Stores/32913,,zhuandan.com,宏兴大厦,http://www.zhuandan.com/Stores/flowers?&p=71
江苏,南京市,18051989684,南京秦淮区心贝花艺,秦淮区,江苏省南京市秦淮区内桥湾66号,1838947193,http://www.zhuandan.com/Stores/13013,,zhuandan.com,内桥湾66号,http://www.zhuandan.com/Stores/flowers?&p=69
广东,东莞市,13066185358,东莞虎门镇爱尚花坊,虎门镇,广东省东莞市虎门镇细卢村前路27号,2469545904,http://www.zhuandan.com/Stores/58748,,zhuandan.com,细卢村前路27号,http://www.zhuandan.com/Stores/flowers?&p=74
浙江,杭州市,15083832395,杭州西湖区漫花生活花店,西湖区,杭州市西湖区紫金花路府苑新村1号14幢4号商铺,824263482,http://www.zhuandan.com/Stores/70310,,zhuandan.com,紫金花路府苑新村1号14幢4号商铺,http://www.zhuandan.com/Stores/flowers?&p=75
北京,北京,18201044366,北京海淀区定慧寺鲜花店,海淀区,八里庄街道西八里庄路定慧福里南区,1348780590,http://www.zhuandan.com/Stores/49463,,zhuandan.com,八里庄街道西八里庄路定慧福里南区,http://www.zhuandan.com/Stores/flowers?&p=73
广东,广州市,15389261681,丽恩花店,白云区,人和镇穗和家园二期,990297729,http://www.zhuandan.com/Stores/62744,,zhuandan.com,人和镇穗和家园二期,http://www.zhuandan.com/Stores/flowers?&p=2215
广东,深圳市,13827849042,深圳龙岗区与花为伴花店,龙岗区,与花为伴布吉街道国展社区湖南路百合星城一期百合酒店公寓大堂2号,1109016182,http://www.zhuandan.com/Stores/79896,,zhuandan.com,与花为伴布吉街道国展社区湖南路百合星城一期百合酒店公寓大堂2号,http://www.zhuandan.com/Stores/flowers?&p=2214
湖南,娄底市,15173896605,新化县妙思花语花店,新化县,新化县新人民医院斜对面,121853011,http://www.zhuandan.com/Stores/36374,,zhuandan.com,新人民医院斜对面,http://www.zhuandan.com/Stores/flowers?&p=2213
安徽,宿州市,15855376975,灵璧县青木花店,灵璧县,安徽省宿州市灵璧县灵城镇钟馗路70号(钟馗路与汴河路交叉口东北方向242米),724929849,http://www.zhuandan.com/Stores/74006,,zhuandan.com,灵城镇钟馗路70号(钟馗路与汴河路交叉口东北方向242米),http://www.zhuandan.com/Stores/flowers?&p=2212
湖南,岳阳市,13786018968,岳阳市岳阳楼区时光花艺,岳阳楼区,白杨坡路25号,790510508,http://www.zhuandan.com/Stores/59422,,zhuandan.com,白杨坡路25号,http://www.zhuandan.com/Stores/flowers?&p=2222
山西,运城市,13834735548,运城盐湖区只为遇见花坊,盐湖区,山西省运城市盐湖区北城街道工农西街319号佰客隆购物广场(工农西街店)(工农西街与货场西路交叉口东侧30米),550368655,http://www.zhuandan.com/Stores/79390,,zhuandan.com,北城街道工农西街319号佰客隆购物广场(工农西街店)(工农西街与货场西路交叉口东侧30米),http://www.zhuandan.com/Stores/flowers?&p=2221
上海,上海,13524078992,上海嘉定艺阁花坊,嘉定区,艺阁花坊上海市嘉定区马陆阿克苏路深城投十一街区7号楼107,179271093,http://www.zhuandan.com/Stores/75415,,zhuandan.com,艺阁花坊马陆阿克苏路深城投十一街区7号楼107,http://www.zhuandan.com/Stores/flowers?&p=61
湖南,长沙市,13787000123,长沙雨花区京喜花铺,雨花区,左家塘狮子山一片,23170123,http://www.zhuandan.com/Stores/21533,,zhuandan.com,左家塘狮子山一片,http://www.zhuandan.com/Stores/flowers?&p=2220
浙江,宁波市,13586911031,余姚市尚品花坊,余姚市,余姚市泗门镇河塍北路17号,314234079,http://www.zhuandan.com/Stores/26140,,zhuandan.com,泗门镇河塍北路17号,http://www.zhuandan.com/Stores/flowers?&p=2219
江苏,苏州市,18225707270,太仓市初见花店,太仓市,弇山东路19-04,1639540434,http://www.zhuandan.com/Stores/73500,,zhuandan.com,弇山东路19-04,http://www.zhuandan.com/Stores/flowers?&p=2218
上海,上海,18721102293,上海松江区新鲜花艺,松江区,九亭涞坊路650弄中大九里德小区内,86023400,http://www.zhuandan.com/Stores/55834,,zhuandan.com,九亭涞坊路650弄中大九里德小区内,http://www.zhuandan.com/Stores/flowers?&p=2217
广东,东莞市,15015347583,东莞寮步花艺,寮步镇,寮步镇松柏路,2385592494,http://www.zhuandan.com/Stores/52761,,zhuandan.com,松柏路,http://www.zhuandan.com/Stores/flowers?&p=2216
湖北,武汉市,18907179819,武汉武昌区幸福之约鲜花店,武昌区,武汉市洪山区金地自在城12栋6号商铺,1218047954,http://www.zhuandan.com/Stores/57780,,zhuandan.com,洪山区金地自在城12栋6号商铺,http://www.zhuandan.com/Stores/flowers?&p=66
安徽,阜阳市,13295682289,阜阳颍州区富荣鲜花店,颍州区,鹿祠街安康苑3期西区2号楼103,1071580458,http://www.zhuandan.com/Stores/78086,,zhuandan.com,鹿祠街安康苑3期西区2号楼103,http://www.zhuandan.com/Stores/flowers?&p=64
广东,深圳市,15989506587,深圳龙岗区花年花坊,龙岗区,广东省深圳市龙岗区龙岗街道邱屋小区,2114718845,http://www.zhuandan.com/Stores/45831,,zhuandan.com,龙岗街道邱屋小区,http://www.zhuandan.com/Stores/flowers?&p=67
四川,成都市,18090373107,成都金牛区几禾鲜花店,金牛区,四川省成都市金牛区营门口街道锦西名宅·天鑫花园(东区)锦西名宅·天鑫花园东区(银沙北街与银河北街交叉口东侧75米),2392458784,http://www.zhuandan.com/Stores/78422,,zhuandan.com,营门口街道锦西名宅·天鑫花园(东区)锦西名宅·天鑫花园东区(银沙北街与银河北街交叉口东侧75米),http://www.zhuandan.com/Stores/flowers?&p=65
湖北,仙桃市,13707226446,仙桃市怡情花缘,仙桃市,仙桃中学北门正对面,"453469028,564931457,2384527489",http://www.zhuandan.com/Stores/9075,,zhuandan.com,仙桃中学北门正对面,http://www.zhuandan.com/Stores/flowers?&p=63
山东,德州市,18405442222,德州市紫情花艺鲜花店,德城区,德城区三八路人民医院北门东300米路南花香袭人鲜花店,"393871410,386937160,137513000",http://www.zhuandan.com/Stores/12817,,zhuandan.com,三八路人民医院北门东300米路南花香袭人鲜花店,http://www.zhuandan.com/Stores/flowers?&p=62
河北,石家庄市,18713168698,石家庄市红太郎鲜花店,桥西区,裕华西路22号,404029887,http://www.zhuandan.com/Stores/40383,,zhuandan.com,裕华西路22号,http://www.zhuandan.com/Stores/flowers?&p=72
重庆,重庆市,15826218665,重庆涪陵区玖月鲜花,涪陵区,重庆市涪陵区兴华中路41号3号楼2号门面,2642241628,http://www.zhuandan.com/Stores/4424,,zhuandan.com,兴华中路41号3号楼2号门面,http://www.zhuandan.com/Stores/flowers?&p=70
山东,枣庄市,15689358020,枣庄中区枣庄花之语鲜花店,市中区,花之语鲜花店,1391218209,http://www.zhuandan.com/Stores/86092,,zhuandan.com,花之语鲜花店,http://www.zhuandan.com/Stores/flowers?&p=68
辽宁,丹东市,15941509209,丹东振兴区甜缘花坊,振兴区,辽宁省丹东市振兴区永昌街道锦山大街,244624973,http://www.zhuandan.com/Stores/50840,,zhuandan.com,永昌街道锦山大街,http://www.zhuandan.com/Stores/flowers?&p=71
江苏,南通市,13962889359,海门市爱尚鲜花店,海门市,江苏南通海门市镇中路83号（实验幼儿园对面）,415934331,http://www.zhuandan.com/Stores/10998,,zhuandan.com,南通镇中路83号（实验幼儿园对面）,http://www.zhuandan.com/Stores/flowers?&p=69
河南,郑州市,15890023047,新郑市尚艺花坊,新郑市,河南省郑州市龙湖镇祥和路13号河南工程学院西区(祥和路与鸿鹄路交叉口西侧128米),851905012,http://www.zhuandan.com/Stores/27264,,zhuandan.com,龙湖镇祥和路13号工程学院西区(祥和路与鸿鹄路交叉口西侧128米),http://www.zhuandan.com/Stores/flowers?&p=74
河北,衡水市,13833854108,衡水桃城区温馨花坊鲜花蛋糕速递,桃城区,衡水市红旗大街1069号,3005331009,http://www.zhuandan.com/Stores/13753,,zhuandan.com,红旗大街1069号,http://www.zhuandan.com/Stores/flowers?&p=75
吉林,长春市,13314307635,长春南关区鸿颖花艺,南关区,重庆路与大经路交汇处,274135439,http://www.zhuandan.com/Stores/25,,zhuandan.com,重庆路与大经路交汇处,http://www.zhuandan.com/Stores/flowers?&p=2215
四川,成都市,15982236493,成都双流区十里花坊,双流区,双流东升镇丰乐东街144号,753777324,http://www.zhuandan.com/Stores/82456,,zhuandan.com,双流东升镇丰乐东街144号,http://www.zhuandan.com/Stores/flowers?&p=2214
四川,南充市,18881785730,阆中市芙洛拉花艺梦工坊,阆中市,开发区马驰街359号,2494470191,http://www.zhuandan.com/Stores/65559,,zhuandan.com,开发区马驰街359号,http://www.zhuandan.com/Stores/flowers?&p=2213
江苏,南京市,17512592659,南京江宁区若兮花艺,江宁区,南京市江宁区保利中央公园11栋2803,749967716,http://www.zhuandan.com/Stores/74262,,zhuandan.com,保利中央公园11栋2803,http://www.zhuandan.com/Stores/flowers?&p=2212
四川,达州市,15182890798,达州市情有独钟鲜花店,通川区,达州市通川区邓家巷39号,3287916900,http://www.zhuandan.com/Stores/21269,,zhuandan.com,邓家巷39号,http://www.zhuandan.com/Stores/flowers?&p=2211
山东,滨州市,13963086686,博兴县雅轩花艺,博兴县,市中心胜利二路鲁中文化城,835437304,http://www.zhuandan.com/Stores/9493,,zhuandan.com,市中心胜利二路鲁中文化城,http://www.zhuandan.com/Stores/flowers?&p=2210
北京,北京,13911111739,北京大兴区沐沐花园,大兴区,地盛北街1号院地下一层扶梯口B1-120,3014604859,http://www.zhuandan.com/Stores/88084,,zhuandan.com,地盛北街1号院地下一层扶梯口B1-120,http://www.zhuandan.com/Stores/flowers?&p=2209
河北,石家庄市,13373119015,石家庄长安区园野鲜花,长安区,丰收路北城国际,197116926,http://www.zhuandan.com/Stores/69140,,zhuandan.com,丰收路北城国际,http://www.zhuandan.com/Stores/flowers?&p=2208
四川,宜宾市,13518457743,宜宾市吉祥花店,叙州区,四川宜宾市翠屏区翠柏大道386号,17214274,http://www.zhuandan.com/Stores/31,,zhuandan.com,翠屏区翠柏大道386号,http://www.zhuandan.com/Stores/flowers?&p=2222
河南,洛阳市,15038528930,洛阳洛龙区馨语花坊,洛龙区,洛龙区安乐新村甲天下花卉市场,570094741,http://www.zhuandan.com/Stores/79646,,zhuandan.com,安乐新村甲天下花卉市场,http://www.zhuandan.com/Stores/flowers?&p=2221
广东,珠海市,15113145205,珠海香洲区花拾忆花艺店,香洲区,广东省珠海市香洲区明珠南路|1954|-1号,449236421,http://www.zhuandan.com/Stores/37560,,zhuandan.com,明珠南路|1954|-1号,http://www.zhuandan.com/Stores/flowers?&p=61
安徽,合肥市,18715127423,合肥蜀山区我爱我家花店,蜀山区,望江路与潜山路交口海卉花市南区我爱我家园艺,610942086,http://www.zhuandan.com/Stores/88349,,zhuandan.com,望江路与潜山路交口海卉花市南区我爱我家园艺,http://www.zhuandan.com/Stores/flowers?&p=2220
四川,成都市,15902801142,成都金牛区倩媛花店,金牛区,马鞍东路21号,1040301294,http://www.zhuandan.com/Stores/61980,,zhuandan.com,马鞍东路21号,http://www.zhuandan.com/Stores/flowers?&p=2219
浙江,杭州市,18868738488,杭州滨江区米卡花园,滨江区,滨盛路4136号米卡花园,386917427,http://www.zhuandan.com/Stores/78108,,zhuandan.com,滨盛路4136号米卡花园,http://www.zhuandan.com/Stores/flowers?&p=2218
辽宁,阜新市,13470348877,阜新市伊甸园鲜花,细河区,辽宁省阜新市海州区解放大街1号,249837304,http://www.zhuandan.com/Stores/795,,zhuandan.com,海州区解放大街1号,http://www.zhuandan.com/Stores/flowers?&p=2217
湖南,永州市,13450090503,道县南风花艺馆,道县,万和世纪城,923531560,http://www.zhuandan.com/Stores/67866,,zhuandan.com,万和世纪城,http://www.zhuandan.com/Stores/flowers?&p=2216
山东,青岛市,17554272268,青岛市城阳区芊朵卉鲜花,城阳区,山东省青岛市城阳区城阳街道春阳路292号仁和居东区,961234339,http://www.zhuandan.com/Stores/34485,,zhuandan.com,城阳街道春阳路292号仁和居东区,http://www.zhuandan.com/Stores/flowers?&p=66
云南,昆明市,13320962662,昆明市花汀花店,西山区,福海街道河景路李家地统建房2单元101,344378857,http://www.zhuandan.com/Stores/17414,,zhuandan.com,福海街道河景路李家地统建房2单元101,http://www.zhuandan.com/Stores/flowers?&p=64
山东,烟台市,13465501369,龙口市四季鲜花店,龙口市,龙口市黄城港城大道,664307394,http://www.zhuandan.com/Stores/7949,,zhuandan.com,黄城港城大道,http://www.zhuandan.com/Stores/flowers?&p=67
重庆,重庆市,15803012295,重庆江北区三秋鲜花店,江北区,重庆市江北区五江路|9号,473821788,http://www.zhuandan.com/Stores/77158,,zhuandan.com,五江路|9号,http://www.zhuandan.com/Stores/flowers?&p=65
北京,北京,13683000271,北京大兴区鑫美鲜花,大兴区,北京市大兴区旧宫镇庑殿路旧宫医院北侧,2684228614,http://www.zhuandan.com/Stores/16760,,zhuandan.com,旧宫镇庑殿路旧宫医院北侧,http://www.zhuandan.com/Stores/flowers?&p=63
陕西,西安市,18829034567,西安未央区禧欢你花坊,未央区,凤和路明光路花卉市场,491019843,http://www.zhuandan.com/Stores/72476,,zhuandan.com,凤和路明光路花卉市场,http://www.zhuandan.com/Stores/flowers?&p=62
上海,上海,18916184029,上海宝山区亦乔鲜花店,宝山区,上海市宝山区淞发路901弄9号楼111-1,33541652,http://www.zhuandan.com/Stores/78026,,zhuandan.com,淞发路901弄9号楼111-1,http://www.zhuandan.com/Stores/flowers?&p=72
广西,南宁市,15578898013,南宁市心贝花艺,江南区,南宁市江南区星光大道66号,"1287567370,262927803",http://www.zhuandan.com/Stores/5460,,zhuandan.com,星光大道66号,http://www.zhuandan.com/Stores/flowers?&p=70
辽宁,大连市,17824355502,大连沙河口区兰亭花艺,沙河口区,五一路193号1-1-1,25881291,http://www.zhuandan.com/Stores/50028,,zhuandan.com,五一路193号1-1-1,http://www.zhuandan.com/Stores/flowers?&p=68
四川,成都市,18881865229,成都温江区十九花艺创意气球,温江区,温江区柳城大道东段44号,562946803,http://www.zhuandan.com/Stores/59549,,zhuandan.com,柳城大道东段44号,http://www.zhuandan.com/Stores/flowers?&p=71
安徽,芜湖市,15955329025,芜湖市百合花卉,弋江区,芜湖市弋江区利民路二十六号特色王对面,3126656591,http://www.zhuandan.com/Stores/14593,,zhuandan.com,利民路二十六号特色王对面,http://www.zhuandan.com/Stores/flowers?&p=69
上海,上海,13501994364,上海杨浦区萌友鲜花店,杨浦区,上海市杨浦区五角场国和路493号,1051431994,http://www.zhuandan.com/Stores/35968,,zhuandan.com,五角场国和路493号,http://www.zhuandan.com/Stores/flowers?&p=74
四川,成都市,15328099465,成都武侯区雨诗丽花艺,武侯区,武侯区十二中街4号,603756589,http://www.zhuandan.com/Stores/24506,,zhuandan.com,十二中街4号,http://www.zhuandan.com/Stores/flowers?&p=75
湖南,张家界市,18374298109,张家界市花仙子,永定区,北正街建设银行旁,1942238589,http://www.zhuandan.com/Stores/14099,,zhuandan.com,北正街建设银行旁,http://www.zhuandan.com/Stores/flowers?&p=2207
内蒙古,包头市,18647234113,包头市花之语花艺,青山区,包头市友谊大街51号屹林市场,243223757,http://www.zhuandan.com/Stores/19986,,zhuandan.com,友谊大街51号屹林市场,http://www.zhuandan.com/Stores/flowers?&p=2206
山东,济南市,13296402602,济南玫瑰庄园鲜花,天桥区,堤口南路89号东临界,737233378,http://www.zhuandan.com/Stores/14353,,zhuandan.com,堤口南路89号东临界,http://www.zhuandan.com/Stores/flowers?&p=2204
浙江,金华市,15867977710,金华市婺城昀川花艺,婺城区,金华花卉市场,45715942,http://www.zhuandan.com/Stores/68121,,zhuandan.com,金华花卉市场,http://www.zhuandan.com/Stores/flowers?&p=2215
吉林,长春市,13039113301,长春朝阳区简爱晴天的花店,朝阳区,繁荣路理工大学旁,1636574299,http://www.zhuandan.com/Stores/18712,,zhuandan.com,繁荣路理工大学旁,http://www.zhuandan.com/Stores/flowers?&p=2214
吉林,长春市,18744038178,长春绿园区自然花园花艺设计,绿园区,西安大路与翔运街交汇西北100米(天财大厦101室)自然花园花艺设计,376102764,http://www.zhuandan.com/Stores/73239,,zhuandan.com,西安大路与翔运街交汇西北100米(天财大厦101室)自然花园花艺设计,http://www.zhuandan.com/Stores/flowers?&p=2213
江苏,南通市,17196329926,南通崇川区小明的花店,崇川区,红星路南万濠星城,569482997,http://www.zhuandan.com/Stores/74518,,zhuandan.com,红星路南万濠星城,http://www.zhuandan.com/Stores/flowers?&p=2212
江苏,南通市,13814744964,南通崇川区十里鲜花,崇川区,江苏省南通市崇川区孩儿巷北路黎明花园29号,523409585,http://www.zhuandan.com/Stores/88853,,zhuandan.com,孩儿巷北路黎明花园29号,http://www.zhuandan.com/Stores/flowers?&p=2211
四川,绵阳市,18084881246,绵阳培城区优宜易园林,涪城区,一环路北段与滨江西路北段交叉口西北100米优宜易园林(二桥花市店),435506952,http://www.zhuandan.com/Stores/76053,,zhuandan.com,一环路北段与滨江西路北段交叉口西北100米优宜易园林(二桥花市店),http://www.zhuandan.com/Stores/flowers?&p=2210
重庆,重庆市,15808030452,重庆市花尚荟鲜花,渝北区,重庆市渝北区泰山大道中段19号熊婆婆的花园绿5门市,1012646454,http://www.zhuandan.com/Stores/34836,,zhuandan.com,泰山大道中段19号熊婆婆的花园绿5门市,http://www.zhuandan.com/Stores/flowers?&p=2209
重庆,重庆市,13389603255,重庆九龙坡区百花谷鲜花婚庆,九龙坡区,重庆市九龙坡区渝州路街道渝州路19号朗瑞商务酒店,88067050,http://www.zhuandan.com/Stores/75028,,zhuandan.com,渝州路街道渝州路19号朗瑞商务酒店,http://www.zhuandan.com/Stores/flowers?&p=2208
山东,潍坊市,13666363751,潍坊奎文区东关花漾花艺,奎文区,东风街四平路交叉口往东约100米路南面商铺,1245355871,http://www.zhuandan.com/Stores/73247,,zhuandan.com,东风街四平路交叉口往东约100米路南面商铺,http://www.zhuandan.com/Stores/flowers?&p=2222
河北,石家庄市,13333380576,石家庄红太狼鲜花店,裕华区,槐安路富强大街交口西南角怀特花鸟鱼虫城4014号,977685855,http://www.zhuandan.com/Stores/18718,,zhuandan.com,槐安路富强大街交口西南角怀特花鸟鱼虫城4014号,http://www.zhuandan.com/Stores/flowers?&p=2221
北京,北京,13436881589,北京丰台区卉艺得花艺,丰台区,蒲黄榆路南方路9号院,737501078,http://www.zhuandan.com/Stores/70330,,zhuandan.com,蒲黄榆路南方路9号院,http://www.zhuandan.com/Stores/flowers?&p=61
湖北,武汉市,15102726180,武汉市喜洋洋花艺,汉南区,湖北省武汉市蔡甸区沌阳街道全力一路139-146栋附10号薛峰社区,2585790849,http://www.zhuandan.com/Stores/55069,,zhuandan.com,蔡甸区沌阳街道全力一路139-146栋附10号薛峰社区,http://www.zhuandan.com/Stores/flowers?&p=2220
重庆,重庆市,13983096492,重庆渝北区悦欣鲜花婚庆店,渝北区,重庆市渝北区龙溪街道天竺路300号附113号,1151328385,http://www.zhuandan.com/Stores/68125,,zhuandan.com,龙溪街道天竺路300号附113号,http://www.zhuandan.com/Stores/flowers?&p=2219
安徽,合肥市,13665519478,肥东县金玉良缘鲜花婚庆馆,肥东县,龙泉路与浮槎路交口,1307426186,http://www.zhuandan.com/Stores/14364,,zhuandan.com,龙泉路与浮槎路交口,http://www.zhuandan.com/Stores/flowers?&p=2218
江西,赣州市,13707029809,赣县花儿朵朵花店,赣县区,江西省赣州市赣县,314300477,http://www.zhuandan.com/Stores/2843,,zhuandan.com,赣县,http://www.zhuandan.com/Stores/flowers?&p=2217
江西,赣州市,13576726628,赣州市玫瑰园花艺,章贡区,江西省章贡区赣州市厚德路34-2号,"1031716916,1773831196",http://www.zhuandan.com/Stores/4378,,zhuandan.com,厚德路34-2号,http://www.zhuandan.com/Stores/flowers?&p=2216
湖南,长沙市,17652484710,长沙市望城区兰亭花坊,望城区,金山桥街道新城国际花都商业中心F123,"3144304727,1105052587,821258175",http://www.zhuandan.com/Stores/63417,,zhuandan.com,金山桥街道新城国际花都商业中心F123,http://www.zhuandan.com/Stores/flowers?&p=66
湖北,荆州市,13872414416,荆州市幸福花缘,荆州区,湖北省荆州区人民路1号,1225697481,http://www.zhuandan.com/Stores/18951,,zhuandan.com,人民路1号,http://www.zhuandan.com/Stores/flowers?&p=64
辽宁,抚顺市,15241306222,抚顺市爱瑞花艺,顺城区,临江路东段10号楼民政局斜对面,120212752,http://www.zhuandan.com/Stores/15900,,zhuandan.com,临江路东段10号楼民政局斜对面,http://www.zhuandan.com/Stores/flowers?&p=67
广东,深圳市,18038057718,深圳福田区花之美鲜花店,福田区,八卦岭工业区544栋,286231066,http://www.zhuandan.com/Stores/70765,,zhuandan.com,八卦岭工业区544栋,http://www.zhuandan.com/Stores/flowers?&p=65
山西,运城市,13293861616,运城市爱的花店总店,盐湖区,运城市盐湖区红旗东街298号市财政局正对面,444541055,http://www.zhuandan.com/Stores/25485,,zhuandan.com,红旗东街298号市财政局正对面,http://www.zhuandan.com/Stores/flowers?&p=63
甘肃,武威市,13884540461,武威市欣欣鲜花花店,凉州区,地质新村街街道阜康路,"2775661619,3302744801",http://www.zhuandan.com/Stores/16668,,zhuandan.com,地质新村街街道阜康路,http://www.zhuandan.com/Stores/flowers?&p=62
四川,成都市,15108476942,成都双流区花喜派花艺工作室,双流区,西航港街道珠江路600号蓝光空港国际城二期一栋一单元414号,1050741013,http://www.zhuandan.com/Stores/76766,,zhuandan.com,西航港街道珠江路600号蓝光空港国际城二期一栋一单元414号,http://www.zhuandan.com/Stores/flowers?&p=72
浙江,台州市,13676621883,临海市萧祺花行,临海市,浙江台州临海市塘头路16号,2360485167,http://www.zhuandan.com/Stores/10075,,zhuandan.com,台州塘头路16号,http://www.zhuandan.com/Stores/flowers?&p=70
浙江,杭州市,13732226431,杭州西湖区蓝恋花坊,西湖区,浙江省杭州市西湖区文新街道府新花园(文二西路567号,935867999,http://www.zhuandan.com/Stores/27258,,zhuandan.com,文新街道府新花园(文二西路567号,http://www.zhuandan.com/Stores/flowers?&p=68
新疆,乌鲁木齐市,13565850079,乌鲁木齐市花好月圆创意花坊,沙依巴克区,乌鲁木齐友好南路288号,273279460,http://www.zhuandan.com/Stores/10399,,zhuandan.com,乌鲁木齐友好南路288号,http://www.zhuandan.com/Stores/flowers?&p=71
吉林,长春市,18186860185,长春市南关区初见花艺工作室,南关区,重庆路18号,39052433,http://www.zhuandan.com/Stores/14982,,zhuandan.com,重庆路18号,http://www.zhuandan.com/Stores/flowers?&p=74
福建,厦门市,13666029708,厦门湖里区海若花房,湖里区,湖里，华永天地288,593612981,http://www.zhuandan.com/Stores/1220,,zhuandan.com,湖里，华永天地288,http://www.zhuandan.com/Stores/flowers?&p=75
山西,朔州市,18910704913,朔州朔城区花骑士鲜花,朔城区,古北街,1794124082,http://www.zhuandan.com/Stores/80147,,zhuandan.com,古北街,http://www.zhuandan.com/Stores/flowers?&p=2207
广西,南宁市,15277009360,南宁兴宁区一米花店,兴宁区,人民东路11-12号,1363533299,http://www.zhuandan.com/Stores/21010,,zhuandan.com,人民东路11-12号,http://www.zhuandan.com/Stores/flowers?&p=2206
辽宁,沈阳市,18524450555,沈阳和平区鹿以花园鲜花店,和平区,亚洲时尚公寓1号楼,234190222,http://www.zhuandan.com/Stores/79889,,zhuandan.com,亚洲时尚公寓1号楼,http://www.zhuandan.com/Stores/flowers?&p=2204
北京,北京,13717668860,北京朝阳区青藤雨露鲜花,朝阳区,安贞里二区九号楼,1922172238,http://www.zhuandan.com/Stores/15888,,zhuandan.com,安贞里二区九号楼,http://www.zhuandan.com/Stores/flowers?&p=2203
广东,东莞市,15920271219,东莞塘厦镇心心花坊,塘厦镇,塘厦石潭布塘虱龙一街27,2952996786,http://www.zhuandan.com/Stores/26127,,zhuandan.com,塘厦石潭布塘虱龙一街27,http://www.zhuandan.com/Stores/flowers?&p=2202
上海,上海,15801841217,上海浦东新区金高路花店,浦东新区,金高路1796号都市花卉,962896653,http://www.zhuandan.com/Stores/66831,,zhuandan.com,金高路1796号都市花卉,http://www.zhuandan.com/Stores/flowers?&p=2201
河南,郑州市,13211118865,新郑市朵唯花艺,新郑市,河南省郑州市新郑市龙湖镇滨湖路与祥云路交叉口向北丹石街区南门向东30米朵唯花艺,3167665485,http://www.zhuandan.com/Stores/16397,,zhuandan.com,龙湖镇滨湖路与祥云路交叉口向北丹石街区南门向东30米朵唯花艺,http://www.zhuandan.com/Stores/flowers?&p=2200
江苏,盐城市,13962005289,射阳县一品红鲜花蛋糕,射阳县,江苏盐城射阳县双拥南路2号,"673457982,3160896838",http://www.zhuandan.com/Stores/11033,,zhuandan.com,盐城双拥南路2号,http://www.zhuandan.com/Stores/flowers?&p=2215
四川,成都市,18140144577,成都龙泉驿区花蜜艺术花艺,龙泉驿区,黄城堰街6号,892953144,http://www.zhuandan.com/Stores/18968,,zhuandan.com,黄城堰街6号,http://www.zhuandan.com/Stores/flowers?&p=2214
广东,广州市,13610239232,广州花都区芳草花卉,花都区,北中路26附近芳草花店,693606246,http://www.zhuandan.com/Stores/79383,,zhuandan.com,北中路26附近芳草花店,http://www.zhuandan.com/Stores/flowers?&p=2213
湖北,襄阳市,18272032283,襄阳樊城区盛放花艺,樊城区,高新区紫贞路10-31号,623373848,http://www.zhuandan.com/Stores/78870,,zhuandan.com,高新区紫贞路10-31号,http://www.zhuandan.com/Stores/flowers?&p=2212
陕西,西安市,18291940709,西安雁塔区山茶花坊,雁塔区,陕西省西安市雁塔区丈八东路,892800531,http://www.zhuandan.com/Stores/37653,,zhuandan.com,丈八东路,http://www.zhuandan.com/Stores/flowers?&p=2211
北京,北京,15010394472,北京昌平区花e世家,昌平区,北京昌平区政府街大中电器北侧花e世家时尚花艺馆,2322772122,http://www.zhuandan.com/Stores/13333,,zhuandan.com,政府街大中电器北侧花e世家时尚花艺馆,http://www.zhuandan.com/Stores/flowers?&p=2210
广东,广州市,13660587118,广州天河区芃一花艺,天河区,长兴优托邦,413330852,http://www.zhuandan.com/Stores/61716,,zhuandan.com,长兴优托邦,http://www.zhuandan.com/Stores/flowers?&p=2209
陕西,西安市,13008406770,西安雁塔区兰轩花艺馆,雁塔区,世家星城2期49－02,1451057315,http://www.zhuandan.com/Stores/76564,,zhuandan.com,世家星城2期49－02,http://www.zhuandan.com/Stores/flowers?&p=2208
北京,北京,13001218568,北京朝阳区如心舍鲜花绿植,朝阳区,广渠路百姓菜篮子,1910927172,http://www.zhuandan.com/Stores/74271,,zhuandan.com,广渠路百姓菜篮子,http://www.zhuandan.com/Stores/flowers?&p=2222
山东,泰安市,13793812605,泰安市曼丽鲜花店,泰山区,山东省泰安市泰山区华龙家园附近,164862950,http://www.zhuandan.com/Stores/18974,,zhuandan.com,华龙家园附近,http://www.zhuandan.com/Stores/flowers?&p=2221
广东,东莞市,18824349097,东莞虎门镇鸣之花花,虎门镇,百川(朝阳路店)朝阳路78号,366301378,http://www.zhuandan.com/Stores/73934,,zhuandan.com,百川(朝阳路店)朝阳路78号,http://www.zhuandan.com/Stores/flowers?&p=61
湖北,武汉市,13871458182,武汉江汉区柒柒花艺,江汉区,循礼门花市,1745775669,http://www.zhuandan.com/Stores/58653,,zhuandan.com,循礼门花市,http://www.zhuandan.com/Stores/flowers?&p=2220
江苏,徐州市,15365882849,徐州铜山区尚品花店,铜山区,棠张镇棠张村,482539764,http://www.zhuandan.com/Stores/72989,,zhuandan.com,棠张镇棠张村,http://www.zhuandan.com/Stores/flowers?&p=2219
重庆,重庆市,18523943966,重庆绿岛花艺空间,南岸区,重庆市南岸区会展中心百米花街c区103号,26766175,http://www.zhuandan.com/Stores/14876,,zhuandan.com,会展中心百米花街c区103号,http://www.zhuandan.com/Stores/flowers?&p=2218
湖南,娄底市,13807386543,娄底市大地鲜花,娄星区,娄底市娄星区,565050203,http://www.zhuandan.com/Stores/5403,,zhuandan.com,,http://www.zhuandan.com/Stores/flowers?&p=2217
四川,成都市,18382063090,成都武侯区花弥花艺,武侯区,新街里6街c区269号,274706801,http://www.zhuandan.com/Stores/71706,,zhuandan.com,新街里6街c区269号,http://www.zhuandan.com/Stores/flowers?&p=2216
福建,厦门市,15359297278,厦门思明区花语花卉,思明区,福建省厦门市思明区莲前街道莲前东路748-13号华林紫微小区(洪文六路与前埔西路交叉口东北方向143米),"642702446,361303688",http://www.zhuandan.com/Stores/14269,,zhuandan.com,莲前街道莲前东路748-13号华林紫微小区(洪文六路与前埔西路交叉口东北方向143米),http://www.zhuandan.com/Stores/flowers?&p=66
四川,绵阳市,13541742101,绵阳涪城区贝蒂花艺工作室,涪城区,四川省绵阳市涪城区城北街道剑门路东段17号绵阳市骨科医院城北院区(涪华路与剑门路东段交叉口东南方向67米),445079581,http://www.zhuandan.com/Stores/69387,,zhuandan.com,城北街道剑门路东段17号骨科医院城北院区(涪华路与剑门路东段交叉口东南方向67米),http://www.zhuandan.com/Stores/flowers?&p=64
广东,广州市,15521326263,广州天河区龙洞花如意,天河区,广东省广州市天河区龙洞东园,565381030,http://www.zhuandan.com/Stores/40733,,zhuandan.com,龙洞东园,http://www.zhuandan.com/Stores/flowers?&p=67
福建,漳州市,15859608223,漳州市好心情花店,芗城区,建业路金保大厦大门斜对面美久花园2栋8号店,531927244,http://www.zhuandan.com/Stores/33406,,zhuandan.com,建业路金保大厦大门斜对面美久花园2栋8号店,http://www.zhuandan.com/Stores/flowers?&p=65
河北,衡水市,17633382000,衡水桃城区花生活鲜花店,桃城区,河北省衡水市桃城区大麻森乡富力公寓(维明街与和平西路交叉口东北方向172米),1021463033,http://www.zhuandan.com/Stores/44981,,zhuandan.com,大麻森乡富力公寓(维明街与和平西路交叉口东北方向172米),http://www.zhuandan.com/Stores/flowers?&p=63
山东,潍坊市,13963693263,潍坊市花缘鲜花店,奎文区,潍坊市政府东临,"1528902497,577270542,376009150",http://www.zhuandan.com/Stores/9504,,zhuandan.com,政府东临,http://www.zhuandan.com/Stores/flowers?&p=62
广东,阳江市,13642429059,阳江市真爱花店,江城区,东山路171号真爱花店,,http://www.zhuandan.com/Stores/54238,,zhuandan.com,东山路171号真爱花店,http://www.zhuandan.com/Stores/flowers?&p=72
上海,上海,13651744972,上海静安区橘笙花店,静安区,上海市静安区共和新路街道泽州路156号,"1119741097,517010635",http://www.zhuandan.com/Stores/86109,,zhuandan.com,共和新路街道泽州路156号,http://www.zhuandan.com/Stores/flowers?&p=70
安徽,安庆市,18655677130,安庆大观区美佳美花艺生活馆,大观区,集贤南路12号附近慕莎皮肤管理,37059245,http://www.zhuandan.com/Stores/77179,,zhuandan.com,集贤南路12号附近慕莎皮肤管理,http://www.zhuandan.com/Stores/flowers?&p=68
福建,泉州市,15396550259,晋江市绿青时尚花艺,晋江市,晋江青阳锦绣街78-80号,273019320,http://www.zhuandan.com/Stores/27559,,zhuandan.com,晋江青阳锦绣街78-80号,http://www.zhuandan.com/Stores/flowers?&p=71
province,city,tel,name,district,origin_address,qq,shop_url,img_tel,source,address,source_url
北京,北京,18710119960,北京朝阳区欧艺鲜花坊,朝阳区,北京市朝阳区惠新西街南口，天利宏市场,1711461047,http://www.zhuandan.com/Stores/11265,,zhuandan.com,惠新西街南口，天利宏市场,http://www.zhuandan.com/Stores/flowers?&p=1
上海,上海,18521535158,上海市长宁区馨艺鲜花,长宁区,上海市长宁区新泾镇淞虹路685弄绿园一村34号103,1102560144,http://www.zhuandan.com/Stores/13865,,zhuandan.com,新泾镇淞虹路685弄绿园一村34号103,http://www.zhuandan.com/Stores/flowers?&p=1
广东,广州市,15018455963,广州越秀区二八花艺,越秀区,广州市越秀区水荫路12号,"546859605,297352000",http://www.zhuandan.com/Stores/12783,,zhuandan.com,水荫路12号,http://www.zhuandan.com/Stores/flowers?&p=1
北京,北京,IHXIOHNHHV,北京西城区醉初花艺花店,西城区,陶然亭路63号-4底商,511694643,http://www.zhuandan.com/Stores/75480,,zhuandan.com,陶然亭路63号-4底商,http://www.zhuandan.com/Stores/flowers?&p=68
上海,上海,18221496557,上海258鲜花,普陀区,嘉定区江桥镇曹安公路1777号美城广场B区一楼1038--1039--1040房间,1275888453,http://www.zhuandan.com/Stores/14930,,zhuandan.com,嘉定区江桥镇曹安公路1777号美城广场B区一楼1038--1039--1040房间,http://www.zhuandan.com/Stores/flowers?&p=1
上海,上海,15618675997,上海长宁区小花招花坊,长宁区,红宝石路533号B002室,1195377289,http://www.zhuandan.com/Stores/60120,,zhuandan.com,红宝石路533号B002室,http://www.zhuandan.com/Stores/flowers?&p=68
广东,深圳市,18927408255,深圳罗湖区爱之意花坊,罗湖区,东门新园路14号东兴大厦,3515561248,http://www.zhuandan.com/Stores/28603,,zhuandan.com,东门新园路14号东兴大厦,http://www.zhuandan.com/Stores/flowers?&p=1
广东,东莞市,15112751382,东莞石碣镇新意花店,石碣镇,民丰路23号,846974454,http://www.zhuandan.com/Stores/56303,,zhuandan.com,民丰路23号,http://www.zhuandan.com/Stores/flowers?&p=62
上海,上海,15221376745,上海虹口区小卓鲜花,虹口区,水电路广中三村41号106花店,2496346360,http://www.zhuandan.com/Stores/23773,,zhuandan.com,水电路广中三村41号106花店,http://www.zhuandan.com/Stores/flowers?&p=68
北京,北京,15136929949,北京朝阳区浪漫情缘鲜花店,朝阳区,北京市朝阳区酒仙桥,2020597878,http://www.zhuandan.com/Stores/14954,,zhuandan.com,酒仙桥,http://www.zhuandan.com/Stores/flowers?&p=1
北京,北京,17611176599,北京丰台区云汐花坊,丰台区,成寿寺路中海城紫鑫阁134号院3号楼底商云汐花坊,329242955,http://www.zhuandan.com/Stores/67056,,zhuandan.com,成寿寺路中海城紫鑫阁134号院3号楼底商云汐花坊,http://www.zhuandan.com/Stores/flowers?&p=62
重庆,重庆市,13350389611,重庆市小曾鲜花,沙坪坝区,童家桥街道西南政法大学沙坪坝校区,771692965,http://www.zhuandan.com/Stores/50299,,zhuandan.com,童家桥街道西南政法大学沙坪坝校区,http://www.zhuandan.com/Stores/flowers?&p=64
广东,佛山市,13889944958,佛山南海区花鲜谷,南海区,大沥镇祺兴花园,379323545,http://www.zhuandan.com/Stores/39205,,zhuandan.com,大沥镇祺兴花园,http://www.zhuandan.com/Stores/flowers?&p=63
广东,佛山市,17817392794,佛山南海区岐悦心鲜花礼品店,南海区,大沥镇北环路与黄海路交叉口西北150米,2241271604,http://www.zhuandan.com/Stores/75975,,zhuandan.com,大沥镇北环路与黄海路交叉口西北150米,http://www.zhuandan.com/Stores/flowers?&p=65
黑龙江,大庆市,13946908787,大庆市绿之风情鲜花店,萨尔图区,大庆新村经六街4-1楼下,534958109,http://www.zhuandan.com/Stores/3160,,zhuandan.com,大庆新村经六街4-1楼下,http://www.zhuandan.com/Stores/flowers?&p=61
河北,邯郸市,18330035810,邯郸市媞娜花艺坊,丛台区,东柳大街21号春晖小区(东柳北大街),1226374663,http://www.zhuandan.com/Stores/48607,,zhuandan.com,东柳大街21号春晖小区(东柳北大街),http://www.zhuandan.com/Stores/flowers?&p=60
云南,昆明市,15987109178,昆明官渡区花希花店,官渡区,云南省昆明市官渡区吴井街道昆铁工程岔街通号小区(绿色走廊与岔街交叉口西南方向68米),,http://www.zhuandan.com/Stores/48252,,zhuandan.com,吴井街道昆铁工程岔街通号小区(绿色走廊与岔街交叉口西南方向68米),http://www.zhuandan.com/Stores/flowers?&p=67
山东,菏泽市,15552309962,菏泽爱唯一花艺,牡丹区,菏泽市中山路与人民路交叉口东100米路北,772031593,http://www.zhuandan.com/Stores/18184,,zhuandan.com,中山路与人民路交叉口东100米路北,http://www.zhuandan.com/Stores/flowers?&p=66
吉林,吉林市,15843208711,吉林市花样印记鲜花水果速递,船营区,吉林省吉林市船营区临江街道长春路40-8号吉林省吉林中西医结合医院,1243474752,http://www.zhuandan.com/Stores/34528,,zhuandan.com,临江街道长春路40-8号中西医结合医院,http://www.zhuandan.com/Stores/flowers?&p=68
四川,成都市,18782288859,成都青羊区琪卉花坊,青羊区,百花西路1号,515188211,http://www.zhuandan.com/Stores/22958,,zhuandan.com,百花西路1号,http://www.zhuandan.com/Stores/flowers?&p=1
广东,深圳市,15915343125,深圳宝安区福永珍爱花店,宝安区,宝安大道福永段西侧6303-4号（11号线桥头地铁站A出口旁边）,2499726975,http://www.zhuandan.com/Stores/23548,,zhuandan.com,宝安大道福永段西侧6303-4号（11号线桥头地铁站A出口旁边）,http://www.zhuandan.com/Stores/flowers?&p=62
安徽,阜阳市,13965569664,阜阳市春之约花店,颍东区,中鑫商业街162号,769723391,http://www.zhuandan.com/Stores/24702,,zhuandan.com,中鑫商业街162号,http://www.zhuandan.com/Stores/flowers?&p=64
浙江,杭州市,19857185253,杭州市春野花艺,拱墅区,浙江省杭州市拱墅区祥符街道御峰大厦1225室,275861438,http://www.zhuandan.com/Stores/25655,,zhuandan.com,祥符街道御峰大厦1225室,http://www.zhuandan.com/Stores/flowers?&p=63
江苏,南京市,13815432567,南京雨花台区雨梦花艺,雨花台区,西善桥街道岱山中路6-21号,384927778,http://www.zhuandan.com/Stores/42698,,zhuandan.com,西善桥街道岱山中路6-21号,http://www.zhuandan.com/Stores/flowers?&p=65
河北,石家庄市,13613317776,石家庄女人花鲜花,裕华区,河北省石家庄市育才街301号,9879065,http://www.zhuandan.com/Stores/13663,,zhuandan.com,育才街301号,http://www.zhuandan.com/Stores/flowers?&p=61
广东,深圳市,18923456172,深圳宝安区爱尚花艺,宝安区,龙华公园路商业街384号,611661485,http://www.zhuandan.com/Stores/20708,,zhuandan.com,龙华公园路商业街384号,http://www.zhuandan.com/Stores/flowers?&p=60
北京,北京,15010059432,北京伊莎贝尔花坊,西城区,地安门西大街6号,2201229615,http://www.zhuandan.com/Stores/85120,,zhuandan.com,地安门西大街6号,http://www.zhuandan.com/Stores/flowers?&p=67
辽宁,沈阳市,13019341356,沈阳沈河区艺宸鲜花店,沈河区,西顺城街222号2栋1层1号,531114895,http://www.zhuandan.com/Stores/52232,,zhuandan.com,西顺城街222号2栋1层1号,http://www.zhuandan.com/Stores/flowers?&p=66
安徽,宿州市,18225576667,宿州市陌上花开鲜花店,埇桥区,安徽省宿州市埇桥区东关街道汴河中路118号陌上花开花艺,"1292639010,87423745",http://www.zhuandan.com/Stores/24808,,zhuandan.com,东关街道汴河中路118号陌上花开花艺,http://www.zhuandan.com/Stores/flowers?&p=68
广东,深圳市,15220222775,深圳福田区桐馨花店,福田区,南园街道滨河新村25栋,597161902,http://www.zhuandan.com/Stores/44150,,zhuandan.com,南园街道滨河新村25栋,http://www.zhuandan.com/Stores/flowers?&p=1
浙江,台州市,13819688667,台州市路桥区六月天花店,路桥区,桐屿街道屿城路121号,94796172,http://www.zhuandan.com/Stores/65422,,zhuandan.com,桐屿街道屿城路121号,http://www.zhuandan.com/Stores/flowers?&p=59
江西,南昌市,15797737521,南昌青山湖区五月花鲜花店,青山湖区,上海路新村3栋101室,583923391,http://www.zhuandan.com/Stores/30975,,zhuandan.com,上海路新村3栋101室,http://www.zhuandan.com/Stores/flowers?&p=62
湖北,武汉市,13995518957,武汉洪山区米思花艺,洪山区,卓刀泉路238号(地铁2号线杨家湾站B出口旁)武汉皇后公园14号商铺米思花艺,2086485925,http://www.zhuandan.com/Stores/50050,,zhuandan.com,卓刀泉路238号(地铁2号线杨家湾站B出口旁)武汉皇后公园14号商铺米思花艺,http://www.zhuandan.com/Stores/flowers?&p=64
上海,上海,13122635668,上海普陀区嘉嘉花屋,普陀区,普陀区金鼎路1500号,298296400,http://www.zhuandan.com/Stores/39228,,zhuandan.com,金鼎路1500号,http://www.zhuandan.com/Stores/flowers?&p=63
重庆,重庆市,13996051486,重庆渝北区花语花屋,渝北区,松石北路73号附8号花语花屋(松北支路),502422447,http://www.zhuandan.com/Stores/79820,,zhuandan.com,松石北路73号附8号花语花屋(松北支路),http://www.zhuandan.com/Stores/flowers?&p=65
辽宁,沈阳市,15566217200,沈阳浑南区爱尚鲜花坊,浑南区,融大浑河湾,116061721,http://www.zhuandan.com/Stores/85855,,zhuandan.com,融大浑河湾,http://www.zhuandan.com/Stores/flowers?&p=61
江苏,南通市,13962889359,海门市爱尚鲜花店,海门市,江苏南通海门市镇中路83号（实验幼儿园对面）,415934331,http://www.zhuandan.com/Stores/10998,,zhuandan.com,南通镇中路83号（实验幼儿园对面）,http://www.zhuandan.com/Stores/flowers?&p=60
重庆,重庆市,13350371875,重庆渝中区纤霖花艺有限责任公司,渝中区,重庆市渝中区解放碑街道大都会商厦大都会东方广场(正阳街与五一路交叉口西侧44米),514974802,http://www.zhuandan.com/Stores/57482,,zhuandan.com,解放碑街道大都会商厦大都会东方广场(正阳街与五一路交叉口西侧44米),http://www.zhuandan.com/Stores/flowers?&p=67
四川,成都市,18180209656,成都武侯区花与爱,武侯区,四川省成都市武侯区簇桥街道金兴中路336号,3431655568,http://www.zhuandan.com/Stores/36912,,zhuandan.com,簇桥街道金兴中路336号,http://www.zhuandan.com/Stores/flowers?&p=66
西藏,拉萨市,13568750604,拉萨城关区小羽花坊,城关区,太阳岛商务公寓,172891167,http://www.zhuandan.com/Stores/40176,,zhuandan.com,太阳岛商务公寓,http://www.zhuandan.com/Stores/flowers?&p=68
四川,成都市,15982243782,成都市武侯区幸福美鲜花,武侯区,成都市武侯区双丰中路263号附6-7号幸福美鲜花,"898146536,278186499",http://www.zhuandan.com/Stores/13546,,zhuandan.com,双丰中路263号附6-7号幸福美鲜花,http://www.zhuandan.com/Stores/flowers?&p=1
河北,石家庄市,18032481715,石家庄蓝岛花卉,长安区,长安区裕华区新华区桥西区长安公园北门对面,3378611403,http://www.zhuandan.com/Stores/41874,,zhuandan.com,裕华区新华区桥西区长安公园北门对面,http://www.zhuandan.com/Stores/flowers?&p=59
安徽,马鞍山市,18856555208,马鞍山花山区锦瑟花店,花山区,锦瑟花店,654924536,http://www.zhuandan.com/Stores/75320,,zhuandan.com,锦瑟花店,http://www.zhuandan.com/Stores/flowers?&p=58
广东,广州市,13332819433,广州番禺区粤霏鲜花大石店,番禺区,大石爱华路45号,317084106,http://www.zhuandan.com/Stores/78048,,zhuandan.com,大石爱华路45号,http://www.zhuandan.com/Stores/flowers?&p=57
山东,青岛市,18663998810,青岛李沧区尚品花艺,李沧区,山东省青岛市李沧区浮山路街道重庆中路69-70号李村大集农贸市场(青山路与重庆中路辅路交叉口东南方向217米),472857517,http://www.zhuandan.com/Stores/23172,,zhuandan.com,浮山路街道重庆中路69-70号李村大集农贸市场(青山路与重庆中路辅路交叉口东南方向217米),http://www.zhuandan.com/Stores/flowers?&p=56
辽宁,沈阳市,13909825575,沈阳于洪区雅馨韵鲜花庆典,于洪区,辽宁省沈阳市于洪区陵西街道川江教师新村(长江北街与松山西路交叉口南侧278米),286876346,http://www.zhuandan.com/Stores/57104,,zhuandan.com,陵西街道川江教师新村(长江北街与松山西路交叉口南侧278米),http://www.zhuandan.com/Stores/flowers?&p=55
山东,济南市,18560113771,济南槐荫区花千谷花艺,槐荫区,山东省济南市槐荫区报业大厦,623175417,http://www.zhuandan.com/Stores/79269,,zhuandan.com,报业大厦,http://www.zhuandan.com/Stores/flowers?&p=54
云南,保山市,19187505092,保山隆阳区呈祥百合缘花坊,隆阳区,隆阳路梨园商场南大门,2975995030,http://www.zhuandan.com/Stores/87315,,zhuandan.com,隆阳路梨园商场南大门,http://www.zhuandan.com/Stores/flowers?&p=2232
安徽,合肥市,15056993449,合肥包河区时光之礼花店,包河区,美湖小区1栋107室,591128427,http://www.zhuandan.com/Stores/76051,,zhuandan.com,美湖小区1栋107室,http://www.zhuandan.com/Stores/flowers?&p=2231
湖北,武汉市,18942920836,武汉硚口区心意花坊,硚口区,武汉市硚口区长丰大道172号,190975010,http://www.zhuandan.com/Stores/5392,,zhuandan.com,长丰大道172号,http://www.zhuandan.com/Stores/flowers?&p=62
内蒙古,包头市,15848255304,包头市东河区都市花乡鲜花,东河区,内蒙古包头市东河区东站街道,1552370971,http://www.zhuandan.com/Stores/49795,,zhuandan.com,东站街道,http://www.zhuandan.com/Stores/flowers?&p=64
河南,周口市,13271666456,周口川汇区久久鲜花,川汇区,周口市川汇区人民路交叉口向西50米,416479605,http://www.zhuandan.com/Stores/14914,,zhuandan.com,人民路交叉口向西50米,http://www.zhuandan.com/Stores/flowers?&p=63
浙江,金华市,18757620218,东阳市可心花店,东阳市,浙江省金华市东阳市横店镇医学路52号可心花艺,"1158090258,454909407",http://www.zhuandan.com/Stores/27609,,zhuandan.com,横店镇医学路52号可心花艺,http://www.zhuandan.com/Stores/flowers?&p=65
上海,上海,15556856988,上海静安区静雯花房,静安区,灵石路1179号附近灵石路鲜花批发市场,2245221197,http://www.zhuandan.com/Stores/63613,,zhuandan.com,灵石路1179号附近灵石路鲜花批发市场,http://www.zhuandan.com/Stores/flowers?&p=61
云南,昆明市,18287130794,昆明呈贡区恒源花卉经营部,呈贡区,云南省昆明市呈贡区洛羊街道大张溪营(倪大段与林溪路交叉口北侧190米),3297415498,http://www.zhuandan.com/Stores/75264,,zhuandan.com,洛羊街道大张溪营(倪大段与林溪路交叉口北侧190米),http://www.zhuandan.com/Stores/flowers?&p=60
北京,北京,16601062258,北京房山区零起点鲜花坊,房山区,北京市房山区阎村镇007县道星城北里,1325063413,http://www.zhuandan.com/Stores/45195,,zhuandan.com,阎村镇007县道星城北里,http://www.zhuandan.com/Stores/flowers?&p=67
江苏,常州市,15151978899,常州市8090花坊,武进区,牛塘镇青云工业园区,1664533313,http://www.zhuandan.com/Stores/49972,,zhuandan.com,牛塘镇青云工业园区,http://www.zhuandan.com/Stores/flowers?&p=66
江苏,无锡市,13815112737,宜兴市澜语絮花艺,宜兴市,江苏省无锡市宜兴市环科园绿园路112号,626068159,http://www.zhuandan.com/Stores/49649,,zhuandan.com,环科园绿园路112号,http://www.zhuandan.com/Stores/flowers?&p=68
广东,深圳市,13631628230,深圳福田区久久鲜花,福田区,深圳市福田区福华一路中心商务大厦,1587809052,http://www.zhuandan.com/Stores/7629,,zhuandan.com,福华一路中心商务大厦,http://www.zhuandan.com/Stores/flowers?&p=1
陕西,宝鸡市,13279181025,宝鸡市渭滨区盛楠枫鲜花中心,渭滨区,石龙路党家村南门时光花园酒店楼下宝鸡市盛楠枫鲜花,980779586,http://www.zhuandan.com/Stores/83730,,zhuandan.com,石龙路党家村南门时光花园酒店楼下盛楠枫鲜花,http://www.zhuandan.com/Stores/flowers?&p=2230
陕西,咸阳市,18291007495,咸阳渭城区澜庭花艺,渭城区,陕西省咸阳市渭城区渭阳街道东风路(长陵路与东风路交叉口北侧78米),1575682504,http://www.zhuandan.com/Stores/63649,,zhuandan.com,渭阳街道东风路(长陵路与东风路交叉口北侧78米),http://www.zhuandan.com/Stores/flowers?&p=59
广东,深圳市,13434730948,深圳宝安区月圆花艺,宝安区,深圳市宝安区西乡街道前进二路83号,452509957,http://www.zhuandan.com/Stores/37183,,zhuandan.com,西乡街道前进二路83号,http://www.zhuandan.com/Stores/flowers?&p=58
河北,廊坊市,13373368008,霸州市洁洁鲜花店,霸州市,霸州市天祥路隆泰小区西门北200米路东,1031220666,http://www.zhuandan.com/Stores/25826,,zhuandan.com,天祥路隆泰小区西门北200米路东,http://www.zhuandan.com/Stores/flowers?&p=57
上海,上海,18217664962,上海市馨缘花艺服务中心,浦东新区,惠南镇通济路58号,2290714609,http://www.zhuandan.com/Stores/18589,,zhuandan.com,惠南镇通济路58号,http://www.zhuandan.com/Stores/flowers?&p=56
广西,北海市,13877934910,北海市蝶恋花坊花店,海城区,广西北海湖海路251号（湖海路与深圳路交汇处）7路车到技术学院站,1029371033,http://www.zhuandan.com/Stores/11036,,zhuandan.com,北海湖海路251号（湖海路与深圳路交汇处）7路车到技术学院站,http://www.zhuandan.com/Stores/flowers?&p=55
重庆,重庆郊县,18623607456,忠县千佰卉花卉店,忠县,市忠县忠州街道巴王路6号附3号千佰卉,313965680,http://www.zhuandan.com/Stores/68007,,zhuandan.com,市忠州街道巴王路6号附3号千佰卉,http://www.zhuandan.com/Stores/flowers?&p=54
四川,成都市,13540158399,成都双流区卉家花卉,双流区,卉家花卉,65435591,http://www.zhuandan.com/Stores/89363,,zhuandan.com,卉家花卉,http://www.zhuandan.com/Stores/flowers?&p=2232
河北,石家庄市,18633838786,石家庄市汇香源鲜花店,长安区,长征街与和平路交叉口南200米动力厂二宿舍,791883716,http://www.zhuandan.com/Stores/11027,,zhuandan.com,长征街与和平路交叉口南200米动力厂二宿舍,http://www.zhuandan.com/Stores/flowers?&p=2231
广东,深圳市,15986735550,深圳市宜家花卉,宝安区,深圳市龙华新区民治大道牛栏前村31栋101,"461843618,24229138",http://www.zhuandan.com/Stores/23056,,zhuandan.com,龙华新区民治大道牛栏前村31栋101,http://www.zhuandan.com/Stores/flowers?&p=62
湖北,武汉市,13437273458,武汉汉阳区蒲公英鲜花,汉阳区,湖北省武汉市汉阳区五里墩街街道汉阳大道624七里香苑(麒麟路与罗七路交叉口东侧283米),570969846,http://www.zhuandan.com/Stores/62863,,zhuandan.com,五里墩街街道汉阳大道624七里香苑(麒麟路与罗七路交叉口东侧283米),http://www.zhuandan.com/Stores/flowers?&p=64
北京,北京,13520066435,北京朝阳区玉兰香花店,朝阳区,北京市朝阳区西大望路甲12号,"974537959,1300558474,498031490",http://www.zhuandan.com/Stores/11080,,zhuandan.com,西大望路甲12号,http://www.zhuandan.com/Stores/flowers?&p=63
吉林,长春市,17743123322,长春南关区百语鲜花,南关区,电力小区,379315147,http://www.zhuandan.com/Stores/68060,,zhuandan.com,电力小区,http://www.zhuandan.com/Stores/flowers?&p=65
四川,广安市,15808269189,广安市爱之缘花店,广安区,四川省广安市广安区北辰街道城墙街39-3号,713000107,http://www.zhuandan.com/Stores/25216,,zhuandan.com,北辰街道城墙街39-3号,http://www.zhuandan.com/Stores/flowers?&p=61
青海,海西,13897091849,格尔木市春丽礼品店,格尔木市,昆仑路街道八一中路9-1号,,http://www.zhuandan.com/Stores/24584,,zhuandan.com,昆仑路街道八一中路9-1号,http://www.zhuandan.com/Stores/flowers?&p=60
广东,深圳市,13510721807,深圳南山区怡雅花坊,南山区,留仙大道留仙洞悦方广场1号楼2楼D254商铺怡雅花坊(留仙洞悦方广场店),83960831,http://www.zhuandan.com/Stores/69783,,zhuandan.com,留仙大道留仙洞悦方广场1号楼2楼D254商铺怡雅花坊(留仙洞悦方广场店),http://www.zhuandan.com/Stores/flowers?&p=67
河南,许昌市,15993609299,许昌思雨花艺,魏都区,许昌市魏都区毓秀路与前进路交叉口向南50米路西(中医院西门对面）,704777239,http://www.zhuandan.com/Stores/565,,zhuandan.com,毓秀路与前进路交叉口向南50米路西(中医院西门对面）,http://www.zhuandan.com/Stores/flowers?&p=66
辽宁,沈阳市,13514253636,沈阳市小旭花艺工作室,和平区,辽宁省沈阳市和平区太原街街道夜未央Disco中山公园(和平南大街),629269399,http://www.zhuandan.com/Stores/38906,,zhuandan.com,太原街街道夜未央Disco中山公园(和平南大街),http://www.zhuandan.com/Stores/flowers?&p=68
安徽,铜陵市,15385629787,铜陵市佳人鲜花坊,铜官区,恒大绿洲商业街115号,460837773,http://www.zhuandan.com/Stores/18706,,zhuandan.com,恒大绿洲商业街115号,http://www.zhuandan.com/Stores/flowers?&p=2230
四川,成都市,19180410086,成都郫都区阳光花坊,郫都区,天河路淘淘橙二期二单元一楼40号,791182920,http://www.zhuandan.com/Stores/63145,,zhuandan.com,天河路淘淘橙二期二单元一楼40号,http://www.zhuandan.com/Stores/flowers?&p=59
湖南,长沙市,17352878793,长沙雨花区花仙子花店,雨花区,长沙市雨花区莲湖饰品城3栋102,2161186946,http://www.zhuandan.com/Stores/68425,,zhuandan.com,莲湖饰品城3栋102,http://www.zhuandan.com/Stores/flowers?&p=58
河北,唐山市,13513259659,唐山市惜缘花店,丰润区,丰润区富丽城2—5号,631892440,http://www.zhuandan.com/Stores/4082,,zhuandan.com,富丽城2—5号,http://www.zhuandan.com/Stores/flowers?&p=57
湖北,武汉市,15071222325,武汉洪山区一品花艺,洪山区,雄楚大道陈家湾雄楚国际大酒店斜对面,805469851,http://www.zhuandan.com/Stores/22685,,zhuandan.com,雄楚大道陈家湾雄楚国际大酒店斜对面,http://www.zhuandan.com/Stores/flowers?&p=56
甘肃,武威市,13884540461,武威市欣欣鲜花花店,凉州区,地质新村街街道阜康路,"2775661619,3302744801",http://www.zhuandan.com/Stores/16668,,zhuandan.com,地质新村街街道阜康路,http://www.zhuandan.com/Stores/flowers?&p=55
江苏,宿迁市,15751598737,宿迁市花田喜事婚庆花艺,宿城区,义乌商贸城精品二期21号,2719289935,http://www.zhuandan.com/Stores/30897,,zhuandan.com,义乌商贸城精品二期21号,http://www.zhuandan.com/Stores/flowers?&p=54
河北,石家庄市,13373119015,石家庄长安区园野鲜花,长安区,丰收路北城国际,197116926,http://www.zhuandan.com/Stores/69140,,zhuandan.com,丰收路北城国际,http://www.zhuandan.com/Stores/flowers?&p=2232
北京,北京,13911381679,北京平谷区微梦汇鲜花绿植,平谷区,新平北路63号1,379288246,http://www.zhuandan.com/Stores/77843,,zhuandan.com,新平北路63号1,http://www.zhuandan.com/Stores/flowers?&p=2231
广东,潮州市,13727983448,潮州湘桥区松竹梅花苑,湘桥区,潮州市南较路趣春花园10号,819864346,http://www.zhuandan.com/Stores/4628,,zhuandan.com,南较路趣春花园10号,http://www.zhuandan.com/Stores/flowers?&p=62
江苏,南京市,13851624638,南京秦淮区品尚鲜花,秦淮区,江苏省南京市秦淮区仙鹤街126号,981212780,http://www.zhuandan.com/Stores/14999,,zhuandan.com,仙鹤街126号,http://www.zhuandan.com/Stores/flowers?&p=64
山西,大同市,13994414793,大同平城区真情花坊,平城区,山西省大同市平城区向阳里街道红旗小区(向阳街)颐园碧水云天,476673045,http://www.zhuandan.com/Stores/27216,,zhuandan.com,向阳里街道红旗小区(向阳街)颐园碧水云天,http://www.zhuandan.com/Stores/flowers?&p=63
重庆,重庆市,17623238847,重庆沙坪坝区慕秋花艺,沙坪坝区,沙坪坝万达,1481104821,http://www.zhuandan.com/Stores/82140,,zhuandan.com,沙坪坝万达,http://www.zhuandan.com/Stores/flowers?&p=65
江苏,扬州市,15152797650,仪征市优雅花艺,仪征市,工农北路136号,1009650372,http://www.zhuandan.com/Stores/19345,,zhuandan.com,工农北路136号,http://www.zhuandan.com/Stores/flowers?&p=61
广东,佛山市,15815956490,佛山南海区花仟遇,南海区,光明路与西约大街交叉口西50米悦好味农庄,544828136,http://www.zhuandan.com/Stores/83721,,zhuandan.com,光明路与西约大街交叉口西50米悦好味农庄,http://www.zhuandan.com/Stores/flowers?&p=60
湖南,邵阳市,13607398880,邵阳大祥区小丹花艺,大祥区,马蹄路,251803106,http://www.zhuandan.com/Stores/47023,,zhuandan.com,马蹄路,http://www.zhuandan.com/Stores/flowers?&p=67
湖南,长沙市,18569460981,长沙雨花区花生活,雨花区,湖南省长沙市雨花区同升街道环保东路25号南庭·城果,554680806,http://www.zhuandan.com/Stores/23862,,zhuandan.com,同升街道环保东路25号南庭·城果,http://www.zhuandan.com/Stores/flowers?&p=66
山东,烟台市,18563856914,招远市姐姐鲜花店,招远市,山东省烟台市招远市罗峰街道晨钟路266号(晨钟路与金城路交叉口东侧102米),"1410826788,80501666",http://www.zhuandan.com/Stores/62973,,zhuandan.com,罗峰街道晨钟路266号(晨钟路与金城路交叉口东侧102米),http://www.zhuandan.com/Stores/flowers?&p=68
河南,南阳市,18211860808,南阳宛城区爱神鲜花,宛城区,宛仲景北路与仲景路交叉口北150米恒方·卢浮公馆,1023948451,http://www.zhuandan.com/Stores/84754,,zhuandan.com,宛仲景北路与仲景路交叉口北150米恒方·卢浮公馆,http://www.zhuandan.com/Stores/flowers?&p=2230
江西,南昌市,15083555982,南昌青山湖区雅韵源花店,青山湖区,南京东路南大科技楼,250165269,http://www.zhuandan.com/Stores/36011,,zhuandan.com,南京东路南大科技楼,http://www.zhuandan.com/Stores/flowers?&p=59
江苏,南京市,13770512625,南京玄武区昔年花店,栖霞区,南京市玄武区仙林仙鹤门仙居花园旁菜场,493309593,http://www.zhuandan.com/Stores/36708,,zhuandan.com,玄武区仙林仙鹤门仙居花园旁菜场,http://www.zhuandan.com/Stores/flowers?&p=58
广东,深圳市,13640943431,深圳龙华区馨家花坊,龙华区,和平路168号花点时间,1334773206,http://www.zhuandan.com/Stores/56831,,zhuandan.com,和平路168号花点时间,http://www.zhuandan.com/Stores/flowers?&p=57
天津,天津,18722645948,天津红桥区林夕鲜花店,红桥区,和苑街道大明道玉门东里二条一号,1391329924,http://www.zhuandan.com/Stores/86432,,zhuandan.com,和苑街道大明道玉门东里二条一号,http://www.zhuandan.com/Stores/flowers?&p=56
天津,天津,15620126397,天津河北区鲜花店,河北区,天津市河北区江都路,1243431711,http://www.zhuandan.com/Stores/83233,,zhuandan.com,江都路,http://www.zhuandan.com/Stores/flowers?&p=55
湖北,十堰市,15997819575,丹江口市别样花店,丹江口市,沙陀营路商务局楼下别样花店,124594364,http://www.zhuandan.com/Stores/14280,,zhuandan.com,沙陀营路商务局楼下别样花店,http://www.zhuandan.com/Stores/flowers?&p=54
河北,保定市,13731055221,蠡县秀水轩鲜花,蠡县,商业步行街与育才东路交叉口东50米秀水轩鲜花庆典,110516921,http://www.zhuandan.com/Stores/4116,,zhuandan.com,商业步行街与育才东路交叉口东50米秀水轩鲜花庆典,http://www.zhuandan.com/Stores/flowers?&p=2232
湖南,张家界市,18374298109,张家界市花仙子,永定区,北正街建设银行旁,1942238589,http://www.zhuandan.com/Stores/14099,,zhuandan.com,北正街建设银行旁,http://www.zhuandan.com/Stores/flowers?&p=2231
广东,深圳市,13049363807,深圳市芬芳花店,龙岗区,广东省深圳市坪山区和平路28号芬芳花店,873027912,http://www.zhuandan.com/Stores/5652,,zhuandan.com,坪山区和平路28号芬芳花店,http://www.zhuandan.com/Stores/flowers?&p=62
山西,太原市,13835176215,太原西诺红鲜花店,万柏林区,太原市万柏林区新矿院路东一巷9号,705358271,http://www.zhuandan.com/Stores/46255,,zhuandan.com,新矿院路东一巷9号,http://www.zhuandan.com/Stores/flowers?&p=64
江苏,苏州市,15900788941,常熟市大白LOVE鲜花,常熟市,江苏省苏州市常熟市虞山街道湘江东路332号(湘江东路与李闸路交叉口东侧44米),565660772,http://www.zhuandan.com/Stores/18011,,zhuandan.com,虞山街道湘江东路332号(湘江东路与李闸路交叉口东侧44米),http://www.zhuandan.com/Stores/flowers?&p=63
福建,南平市,18706035018,建瓯市光头强花艺,建瓯市,福建省建瓯市西大街131号(国税局正对面),1220833105,http://www.zhuandan.com/Stores/37094,,zhuandan.com,西大街131号(国税局正对面),http://www.zhuandan.com/Stores/flowers?&p=65
湖南,长沙市,13974826861,长沙市雨花区大丽花店,雨花区,雨花区，五一新村安置小区B1栋132号,395238174,http://www.zhuandan.com/Stores/57234,,zhuandan.com,，五一新村安置小区B1栋132号,http://www.zhuandan.com/Stores/flowers?&p=61
重庆,重庆市,17783971667,重庆铜梁区小晓花房,铜梁区,营房街27号,851546880,http://www.zhuandan.com/Stores/50702,,zhuandan.com,营房街27号,http://www.zhuandan.com/Stores/flowers?&p=60
广东,珠海市,15113145205,珠海香洲区花拾忆花艺店,香洲区,广东省珠海市香洲区明珠南路|1954|-1号,449236421,http://www.zhuandan.com/Stores/37560,,zhuandan.com,明珠南路|1954|-1号,http://www.zhuandan.com/Stores/flowers?&p=67
上海,上海,15026653468,上海浦东新区玫瑰之约花坊,浦东新区,牌楼东路80号,1012790897,http://www.zhuandan.com/Stores/25911,,zhuandan.com,牌楼东路80号,http://www.zhuandan.com/Stores/flowers?&p=66
四川,成都市,18380108639,成都锦江区嘉业花艺,锦江区,樱花街1179号绿地468公馆,1520640612,http://www.zhuandan.com/Stores/39679,,zhuandan.com,樱花街1179号绿地468公馆,http://www.zhuandan.com/Stores/flowers?&p=68
内蒙古,包头市,18647234113,包头市花之语花艺,青山区,包头市友谊大街51号屹林市场,243223757,http://www.zhuandan.com/Stores/19986,,zhuandan.com,友谊大街51号屹林市场,http://www.zhuandan.com/Stores/flowers?&p=2230
福建,厦门市,13860458548,厦门思明区燊艺花店,思明区,体育路125之3,3615540240,http://www.zhuandan.com/Stores/74156,,zhuandan.com,体育路125之3,http://www.zhuandan.com/Stores/flowers?&p=59
宁夏,银川市,18295111033,银川兴庆区花乙木鲜花店,兴庆区,银川市兴庆区利群东街82号,501753365,http://www.zhuandan.com/Stores/82032,,zhuandan.com,利群东街82号,http://www.zhuandan.com/Stores/flowers?&p=58
天津,天津,15620709284,天津和平区现鑫花店,和平区,气象台路37号,3384408092,http://www.zhuandan.com/Stores/22787,,zhuandan.com,气象台路37号,http://www.zhuandan.com/Stores/flowers?&p=57
湖北,武汉市,15972158396,武汉洪山区天赐缘婚庆鲜花店,洪山区,武汉市洪山区虎泉教师小区11栋101,1186625235,http://www.zhuandan.com/Stores/28579,,zhuandan.com,虎泉教师小区11栋101,http://www.zhuandan.com/Stores/flowers?&p=56
上海,上海,15102159189,上海闵行区北桥花店,闵行区,上海市闵行区颛桥镇沪闵路2400-6临,1046225495,http://www.zhuandan.com/Stores/41508,,zhuandan.com,颛桥镇沪闵路2400-6临,http://www.zhuandan.com/Stores/flowers?&p=55
天津,天津,13389910148,天津河东区如意花艺,河东区,天津市河东区向阳楼街道阳新里小区14号楼底商如意花艺,"423070372,31678731",http://www.zhuandan.com/Stores/5833,,zhuandan.com,向阳楼街道阳新里小区14号楼底商如意花艺,http://www.zhuandan.com/Stores/flowers?&p=54
重庆,重庆市,13389603255,重庆九龙坡区百花谷鲜花婚庆,九龙坡区,重庆市九龙坡区渝州路街道渝州路19号朗瑞商务酒店,88067050,http://www.zhuandan.com/Stores/75028,,zhuandan.com,渝州路街道渝州路19号朗瑞商务酒店,http://www.zhuandan.com/Stores/flowers?&p=2232
山西,朔州市,18910704913,朔州朔城区花骑士鲜花,朔城区,古北街,1794124082,http://www.zhuandan.com/Stores/80147,,zhuandan.com,古北街,http://www.zhuandan.com/Stores/flowers?&p=2231
陕西,咸阳市,15229107183,咸阳秦都区聪兰亭鲜花婚庆店,秦都区,咸阳市玉泉路中段聪兰亭鲜花婚庆店,3501558412,http://www.zhuandan.com/Stores/65561,,zhuandan.com,玉泉路中段聪兰亭鲜花婚庆店,http://www.zhuandan.com/Stores/flowers?&p=62
广东,东莞市,15015462223,东莞市寮步镇锦园花艺,寮步镇,东莞市寮步镇富竹山花卉市场,769389280,http://www.zhuandan.com/Stores/26555,,zhuandan.com,富竹山花卉市场,http://www.zhuandan.com/Stores/flowers?&p=64
河北,石家庄市,15633812081,辛集市鲜花婚庆,辛集市,河北一集主楼,244573242,http://www.zhuandan.com/Stores/12893,,zhuandan.com,一集主楼,http://www.zhuandan.com/Stores/flowers?&p=63
山东,济南市,15863089172,济南市中区筱满花艺工作室,市中区,马鞍山路52号2号楼1层18号筱满花艺,927164953,http://www.zhuandan.com/Stores/19176,,zhuandan.com,马鞍山路52号2号楼1层18号筱满花艺,http://www.zhuandan.com/Stores/flowers?&p=65
湖南,长沙市,13755049033,长沙县墨兰花香,长沙县,华润置地广场一期,525260955,http://www.zhuandan.com/Stores/67992,,zhuandan.com,华润置地广场一期,http://www.zhuandan.com/Stores/flowers?&p=61
上海,上海,15216880334,上海松江区果果花艺的花,松江区,上海市松江区茸盛路|632号,11420881256,http://www.zhuandan.com/Stores/80156,,zhuandan.com,茸盛路|632号,http://www.zhuandan.com/Stores/flowers?&p=60
安徽,蚌埠市,18119712565,蚌埠市芊卉花艺,龙子湖区,滨湖蓝湾,981620497,http://www.zhuandan.com/Stores/38852,,zhuandan.com,滨湖蓝湾,http://www.zhuandan.com/Stores/flowers?&p=67
甘肃,金昌市,18793610922,金昌金川区漫香坊鲜花,金川区,金昌市金川区河雅路漫香坊鲜花,1665301851,http://www.zhuandan.com/Stores/65598,,zhuandan.com,河雅路漫香坊鲜花,http://www.zhuandan.com/Stores/flowers?&p=66
广西,南宁市,15277009360,南宁兴宁区一米花店,兴宁区,人民东路11-12号,1363533299,http://www.zhuandan.com/Stores/21010,,zhuandan.com,人民东路11-12号,http://www.zhuandan.com/Stores/flowers?&p=2230
湖北,武汉市,18907179819,武汉武昌区幸福之约鲜花店,武昌区,武汉市洪山区金地自在城12栋6号商铺,1218047954,http://www.zhuandan.com/Stores/57780,,zhuandan.com,洪山区金地自在城12栋6号商铺,http://www.zhuandan.com/Stores/flowers?&p=59
广东,深圳市,18988772202,深圳宝安区秀秀馨子鲜花花艺,宝安区,民安路绿景香颂佐阾一楼L121铺,224200934,http://www.zhuandan.com/Stores/35705,,zhuandan.com,民安路绿景香颂佐阾一楼L121铺,http://www.zhuandan.com/Stores/flowers?&p=58
广东,东莞市,13268893188,东莞寮步镇慕慕鲜花,寮步镇,碧园路115号,408802753,http://www.zhuandan.com/Stores/73220,,zhuandan.com,碧园路115号,http://www.zhuandan.com/Stores/flowers?&p=57
上海,上海,18721736155,上海嘉定区相悦花艺,嘉定区,上海市嘉定区南翔镇南翔劳动街利翔公寓(南翔劳动街与民主街交叉口南侧63米),191390551,http://www.zhuandan.com/Stores/70076,,zhuandan.com,南翔镇南翔劳动街利翔公寓(南翔劳动街与民主街交叉口南侧63米),http://www.zhuandan.com/Stores/flowers?&p=56
河南,郑州市,13838193344,郑州金水区慕岚花艺,金水区,金水东路东四环交叉口,578992886,http://www.zhuandan.com/Stores/42555,,zhuandan.com,金水东路东四环交叉口,http://www.zhuandan.com/Stores/flowers?&p=55
江苏,苏州市,18625009016,苏州虎丘区初彩花艺,虎丘区,高新区浒墅关开发分区阳山花苑(西区)阳山花苑5区,841929199,http://www.zhuandan.com/Stores/52939,,zhuandan.com,高新区浒墅关开发分区阳山花苑(西区)阳山花苑5区,http://www.zhuandan.com/Stores/flowers?&p=54
陕西,西安市,13008406770,西安雁塔区兰轩花艺馆,雁塔区,世家星城2期49－02,1451057315,http://www.zhuandan.com/Stores/76564,,zhuandan.com,世家星城2期49－02,http://www.zhuandan.com/Stores/flowers?&p=2232
辽宁,沈阳市,15640457979,沈阳和平区花坞里鲜花,和平区,中兴街54号,176955474,http://www.zhuandan.com/Stores/80403,,zhuandan.com,中兴街54号,http://www.zhuandan.com/Stores/flowers?&p=2231
四川,德阳市,13668307773,德阳市花之语花艺,旌阳区,岷山路107小区8栋(岷山路小学东门旁）,569271467,http://www.zhuandan.com/Stores/35867,,zhuandan.com,岷山路107小区8栋(岷山路小学东门旁）,http://www.zhuandan.com/Stores/flowers?&p=62
山东,青岛市,13105377710,青岛城阳区鑫初诺鲜花,城阳区,和阳路152号-60号,327389381,http://www.zhuandan.com/Stores/41403,,zhuandan.com,和阳路152号-60号,http://www.zhuandan.com/Stores/flowers?&p=64
天津,天津,18302232958,天津河东区玫木传情,河东区,卫国道88号,1709726102,http://www.zhuandan.com/Stores/59751,,zhuandan.com,卫国道88号,http://www.zhuandan.com/Stores/flowers?&p=63
广东,广州市,15915812426,广州番禺区情语花坊,番禺区,广东省广州市番禺区市桥街道捷进中路（公交车站）公交车站对面,3206259989,http://www.zhuandan.com/Stores/85506,,zhuandan.com,市桥街道捷进中路（公交车站）公交车站对面,http://www.zhuandan.com/Stores/flowers?&p=65
西藏,拉萨市,18076999015,拉萨城关区那年花开鲜花店,城关区,娘热南路,576689099,http://www.zhuandan.com/Stores/65973,,zhuandan.com,娘热南路,http://www.zhuandan.com/Stores/flowers?&p=61
山东,济南市,13075355558,济南北北鲜花店,天桥区,联四路清联花园北区8-112,64471425,http://www.zhuandan.com/Stores/45376,,zhuandan.com,联四路清联花园北区8-112,http://www.zhuandan.com/Stores/flowers?&p=60
广东,深圳市,18128829406,深圳宝安区艺景鲜花蛋糕店,宝安区,广东省深圳市宝安区西乡蟠龙居C14号铺（同仁妇科医院对面）,785897084,http://www.zhuandan.com/Stores/13520,,zhuandan.com,西乡蟠龙居C14号铺（同仁妇科医院对面）,http://www.zhuandan.com/Stores/flowers?&p=67
山东,青岛市,15253207480,青岛市南区佳琦花艺鲜花坊,市南区,江西路,738909682,http://www.zhuandan.com/Stores/34112,,zhuandan.com,江西路,http://www.zhuandan.com/Stores/flowers?&p=66
江苏,苏州市,15806215955,苏州吴中区韦爵爷花店,吴中区,韦爵爷更懂女人的花店,498855341,http://www.zhuandan.com/Stores/88338,,zhuandan.com,韦爵爷更懂女人的花店,http://www.zhuandan.com/Stores/flowers?&p=2230
广东,惠州市,13646516752,博罗县七彩花花店,博罗县,园洲大道七彩花店,185181192,http://www.zhuandan.com/Stores/41926,,zhuandan.com,园洲大道七彩花店,http://www.zhuandan.com/Stores/flowers?&p=59
北京,北京,18910919554,北京顺义区美好鲜花,顺义区,北京市顺义区旺泉街道宏城花园(石门街与顺于路交叉口东侧154米),2540395325,http://www.zhuandan.com/Stores/33153,,zhuandan.com,旺泉街道宏城花园(石门街与顺于路交叉口东侧154米),http://www.zhuandan.com/Stores/flowers?&p=58
北京,北京,18701697909,北京朝阳区花开有时花艺,朝阳区,北京市朝阳区鲜花工厂惠河南街1129号,934831923,http://www.zhuandan.com/Stores/24072,,zhuandan.com,鲜花工厂惠河南街1129号,http://www.zhuandan.com/Stores/flowers?&p=57
江西,南昌市,18970901190,南昌新建区告白花房,新建区,江西省南昌市东湖区沙井街道卫东花园卫东花园1期(丽景路与碟子湖大道交叉口东南方向239米),460262609,http://www.zhuandan.com/Stores/76224,,zhuandan.com,东湖区沙井街道卫东花园卫东花园1期(丽景路与碟子湖大道交叉口东南方向239米),http://www.zhuandan.com/Stores/flowers?&p=56
上海,上海,15855260414,上海闵行区妙昕鲜花,闵行区,上海市浦东新区唐陆公路1575号,26749421,http://www.zhuandan.com/Stores/61005,,zhuandan.com,浦东新区唐陆公路1575号,http://www.zhuandan.com/Stores/flowers?&p=55
广东,东莞市,18824349097,东莞虎门镇鸣之花花,虎门镇,百川(朝阳路店)朝阳路78号,366301378,http://www.zhuandan.com/Stores/73934,,zhuandan.com,百川(朝阳路店)朝阳路78号,http://www.zhuandan.com/Stores/flowers?&p=54
山西,晋中市,15035670864,晋中市花点心思鲜花,榆次区,山西省晋中市榆次区安宁街道新建北路御璟豪庭(迎宾街)(新建北路与迎宾街交叉口北侧80米),"843927594,1113154365",http://www.zhuandan.com/Stores/13076,,zhuandan.com,安宁街道新建北路御璟豪庭(迎宾街)(新建北路与迎宾街交叉口北侧80米),http://www.zhuandan.com/Stores/flowers?&p=2232
广东,珠海市,18666900136,珠海香洲区初见画坊,香洲区,夏湾粤华路236号,766739076,http://www.zhuandan.com/Stores/80659,,zhuandan.com,夏湾粤华路236号,http://www.zhuandan.com/Stores/flowers?&p=2231
四川,绵阳市,13458308992,江油市花里时光花艺生活馆,江油市,太平镇创业路78号,573081850,http://www.zhuandan.com/Stores/84415,,zhuandan.com,太平镇创业路78号,http://www.zhuandan.com/Stores/flowers?&p=64
广西,南宁市,13377112201,南宁兴宁区花千美鲜花,兴宁区,昆仑大道南宁花鸟市场B101,2950792561,http://www.zhuandan.com/Stores/74612,,zhuandan.com,昆仑大道南宁花鸟市场B101,http://www.zhuandan.com/Stores/flowers?&p=63
湖北,武汉市,15827232787,武汉洪山区花之语,洪山区,雄楚大街雄楚1号,276725689,http://www.zhuandan.com/Stores/25349,,zhuandan.com,雄楚大街雄楚1号,http://www.zhuandan.com/Stores/flowers?&p=65
山东,泰安市,18854822588,泰安泰山区花先生鲜花花艺,泰山区,山东省泰安市泰山区财源街道迎胜路356号贤德苑(迎胜南路)(泰山大街与迎胜路交叉口北侧205米),731343110,http://www.zhuandan.com/Stores/70075,,zhuandan.com,财源街道迎胜路356号贤德苑(迎胜南路)(泰山大街与迎胜路交叉口北侧205米),http://www.zhuandan.com/Stores/flowers?&p=61
辽宁,大连市,15712393775,大连甘井子区伊莉亚鲜花,甘井子区,辽宁省大连市甘井子区泉水街道奥林园,584935203,http://www.zhuandan.com/Stores/45647,,zhuandan.com,泉水街道奥林园,http://www.zhuandan.com/Stores/flowers?&p=60
重庆,重庆市,15823025211,重庆市永川区勿忘我花艺,永川区,萱花西路437-19,779827634,http://www.zhuandan.com/Stores/34514,,zhuandan.com,萱花西路437-19,http://www.zhuandan.com/Stores/flowers?&p=67
河北,石家庄市,17331188815,石家庄裕华区一木三秋花店,裕华区,富强大街怀特宝车城对面047号,752941055,http://www.zhuandan.com/Stores/62068,,zhuandan.com,富强大街怀特宝车城对面047号,http://www.zhuandan.com/Stores/flowers?&p=66
广东,东莞市,18024622115,东莞市大朗镇时尚花店,大朗镇,沙步村沙溪路119号,392034254,http://www.zhuandan.com/Stores/41746,,zhuandan.com,沙步村沙溪路119号,http://www.zhuandan.com/Stores/flowers?&p=2230
吉林,吉林市,13596246325,吉林船营区可心鲜花绿植蛋糕店,船营区,吉林省吉林市船营区北京路143-32号,"1976413233,819338071",http://www.zhuandan.com/Stores/471,,zhuandan.com,北京路143-32号,http://www.zhuandan.com/Stores/flowers?&p=59
北京,北京,13177779517,北京大兴区袭人花坊,大兴区,乐家购物中心B区星辰花卉B06,377851619,http://www.zhuandan.com/Stores/60291,,zhuandan.com,乐家购物中心B区星辰花卉B06,http://www.zhuandan.com/Stores/flowers?&p=58
贵州,六盘水市,13385581314,六盘水市名品花道,钟山区,贵州省六盘水市明湖路一树药业侧面,1004393557,http://www.zhuandan.com/Stores/6922,,zhuandan.com,明湖路一树药业侧面,http://www.zhuandan.com/Stores/flowers?&p=57
江苏,徐州市,18361273005,徐州市蔓越花店,云龙区,江苏省徐州市泉山区王陵街道中山北路95号福中居,594478669,http://www.zhuandan.com/Stores/28622,,zhuandan.com,泉山区王陵街道中山北路95号福中居,http://www.zhuandan.com/Stores/flowers?&p=56
北京,北京,15011050107,北京朝阳区爱神花艺,朝阳区,北京朝阳区尚都soho西塔1422,"271043460,385595186",http://www.zhuandan.com/Stores/12380,,zhuandan.com,尚都soho西塔1422,http://www.zhuandan.com/Stores/flowers?&p=55
广东,佛山市,13620305622,佛山禅城区尚品花艺馆,禅城区,祖庙街道桂园桂园(南桂西路),243709220,http://www.zhuandan.com/Stores/44248,,zhuandan.com,祖庙街道桂园桂园(南桂西路),http://www.zhuandan.com/Stores/flowers?&p=54
山东,菏泽市,13954030612,菏泽市富贵鲜花店,牡丹区,菏泽市牡丹区牡丹北路,619439817,http://www.zhuandan.com/Stores/14100,,zhuandan.com,牡丹北路,http://www.zhuandan.com/Stores/flowers?&p=2232
福建,莆田市,18105949303,莆田市圣诺蛋糕坊,城厢区,凤凰山建安路105号,766566615,http://www.zhuandan.com/Stores/16915,,zhuandan.com,凤凰山建安路105号,http://www.zhuandan.com/Stores/flowers?&p=2231
河北,张家口市,18931331053,怀安县①号花店,怀安县,柴沟堡镇柴怀路,616183173,http://www.zhuandan.com/Stores/58130,,zhuandan.com,柴沟堡镇柴怀路,http://www.zhuandan.com/Stores/flowers?&p=2230
浙江,杭州市,13656686195,杭州余杭区雅俪舍花坊,余杭区,浙江省杭州市余杭区玉都枫景苑商铺2-3,1751529793,http://www.zhuandan.com/Stores/34776,,zhuandan.com,玉都枫景苑商铺2-3,http://www.zhuandan.com/Stores/flowers?&p=59
江苏,苏州市,18626136560,常熟市花福季鲜花坊,常熟市,江苏省苏州市常熟市虞山街道常福三区第二教工住宅小区(报慈北路与长江路交叉口西北方向135米),277651131，164343158,http://www.zhuandan.com/Stores/42885,,zhuandan.com,虞山街道常福三区第二教工住宅小区(报慈北路与长江路交叉口西北方向135米),http://www.zhuandan.com/Stores/flowers?&p=58
广东,深圳市,15016605005,深圳宝安区拾里鲜花,宝安区,满寿路36附近,491979370,http://www.zhuandan.com/Stores/76565,,zhuandan.com,满寿路36附近,http://www.zhuandan.com/Stores/flowers?&p=57
陕西,西安市,17792358083,西安莲湖区玫瑰鲜花,莲湖区,劳动路51号,1066106096,http://www.zhuandan.com/Stores/58834,,zhuandan.com,劳动路51号,http://www.zhuandan.com/Stores/flowers?&p=56
上海,上海,15921032068,上海静安区小花店,静安区,西藏北路1532号,1007907577,http://www.zhuandan.com/Stores/82019,,zhuandan.com,西藏北路1532号,http://www.zhuandan.com/Stores/flowers?&p=55
天津,天津,13820002252,天津南开区亚飞鲜花店,南开区,雅安道沱江里12号楼底商102祐安健康会馆,103075884,http://www.zhuandan.com/Stores/48363,,zhuandan.com,雅安道沱江里12号楼底商102祐安健康会馆,http://www.zhuandan.com/Stores/flowers?&p=54
湖南,常德市,13975685843,津市市百合鲜花店,津市市,车胤大道芙蓉楼3号门面,1079402267,http://www.zhuandan.com/Stores/14356,,zhuandan.com,车胤大道芙蓉楼3号门面,http://www.zhuandan.com/Stores/flowers?&p=2232
重庆,重庆市,15123958574,重庆九龙坡区Aubrey鲜花,九龙坡区,皇家码头,798887240,http://www.zhuandan.com/Stores/82451,,zhuandan.com,皇家码头,http://www.zhuandan.com/Stores/flowers?&p=2231
陕西,西安市,15929306081,西安雁塔区知否花艺坊,雁塔区,大寨路华洲城熙悦都南门商铺二楼,542933137,http://www.zhuandan.com/Stores/68371,,zhuandan.com,大寨路华洲城熙悦都南门商铺二楼,http://www.zhuandan.com/Stores/flowers?&p=2230
湖南,长沙市,13469041628,长沙开福区花期诺花店,开福区,湘雅路314号,1828766896,http://www.zhuandan.com/Stores/25737,,zhuandan.com,湘雅路314号,http://www.zhuandan.com/Stores/flowers?&p=58
浙江,台州市,13968401444,温岭市百花缘,温岭市,温岭市太平街道虎山路24号,317906625,http://www.zhuandan.com/Stores/46370,,zhuandan.com,太平街道虎山路24号,http://www.zhuandan.com/Stores/flowers?&p=57
内蒙古,呼和浩特市,15034960959,呼和浩特新城区倾心鲜花店,新城区,内蒙古自治区呼和浩特市新城区中山东路街道仁和居内蒙古自治区中医医院(健康街),736620566,http://www.zhuandan.com/Stores/29655,,zhuandan.com,自治区中山东路街道仁和居自治区中医医院(健康街),http://www.zhuandan.com/Stores/flowers?&p=56
广东,深圳市,13088817358,深圳南山区金阳光鲜花店,南山区,广东省深圳市南山区荷兰花卉小镇B区3号金阳光花店,1154094333,http://www.zhuandan.com/Stores/51840,,zhuandan.com,荷兰花卉小镇B区3号金阳光花店,http://www.zhuandan.com/Stores/flowers?&p=55
重庆,重庆市,15002338018,重庆江北区亮柒鲜花坊,江北区,北滨路中段财信·北岸江山,706520026,http://www.zhuandan.com/Stores/84494,,zhuandan.com,北滨路中段财信·北岸江山,http://www.zhuandan.com/Stores/flowers?&p=54
四川,乐山市,13541937912,乐山市花伴花店,市中区,乐山市中区万人小区191号（蓝梦商务酒店旁）,786774964,http://www.zhuandan.com/Stores/16660,,zhuandan.com,中区万人小区191号（蓝梦商务酒店旁）,http://www.zhuandan.com/Stores/flowers?&p=2232
广东,湛江市,15999666322,廉江市千禧绿茵花坊,廉江市,新风南路25号一楼,434754967,http://www.zhuandan.com/Stores/18707,,zhuandan.com,新风南路25号一楼,http://www.zhuandan.com/Stores/flowers?&p=2231
湖南,长沙市,15974172152,长沙岳麓区指间花艺,岳麓区,万科里金域国际3栋102号指间花艺,649834337,http://www.zhuandan.com/Stores/73747,,zhuandan.com,万科里金域国际3栋102号指间花艺,http://www.zhuandan.com/Stores/flowers?&p=2230
province,city,tel,name,district,origin_address,qq,shop_url,img_tel,source,address,source_url
北京,北京,18710119960,北京朝阳区欧艺鲜花坊,朝阳区,北京市朝阳区惠新西街南口，天利宏市场,1711461047,http://www.zhuandan.com/Stores/11265,,zhuandan.com,惠新西街南口，天利宏市场,http://www.zhuandan.com/Stores/flowers?&p=1
上海,上海,18521535158,上海市长宁区馨艺鲜花,长宁区,上海市长宁区新泾镇淞虹路685弄绿园一村34号103,1102560144,http://www.zhuandan.com/Stores/13865,,zhuandan.com,新泾镇淞虹路685弄绿园一村34号103,http://www.zhuandan.com/Stores/flowers?&p=1
广东,广州市,15018455963,广州越秀区二八花艺,越秀区,广州市越秀区水荫路12号,"546859605,297352000",http://www.zhuandan.com/Stores/12783,,zhuandan.com,水荫路12号,http://www.zhuandan.com/Stores/flowers?&p=1
广东,东莞市,13211006800,东莞南城街道惜缘花店,南城街道,莞太路南城段128号119,2821838275,http://www.zhuandan.com/Stores/83847,,zhuandan.com,莞太路南城段128号119,http://www.zhuandan.com/Stores/flowers?&p=89
上海,上海,18221496557,上海258鲜花,普陀区,嘉定区江桥镇曹安公路1777号美城广场B区一楼1038--1039--1040房间,1275888453,http://www.zhuandan.com/Stores/14930,,zhuandan.com,嘉定区江桥镇曹安公路1777号美城广场B区一楼1038--1039--1040房间,http://www.zhuandan.com/Stores/flowers?&p=1
四川,成都市,13308073669,成都郫都区花加Cake,郫都区,四川省成都市郫都区天河路靠近合能橙中心,1321040010,http://www.zhuandan.com/Stores/67208,,zhuandan.com,天河路靠近合能橙中心,http://www.zhuandan.com/Stores/flowers?&p=89
广东,深圳市,18927408255,深圳罗湖区爱之意花坊,罗湖区,东门新园路14号东兴大厦,3515561248,http://www.zhuandan.com/Stores/28603,,zhuandan.com,东门新园路14号东兴大厦,http://www.zhuandan.com/Stores/flowers?&p=1
天津,天津,,天津武清区鑫有鲜花店,武清区,梅厂镇农贸市场38号鑫海花卉礼品,1490248784,http://www.zhuandan.com/Stores/71992,,zhuandan.com,梅厂镇农贸市场38号鑫海花卉礼品,http://www.zhuandan.com/Stores/flowers?&p=87
吉林,长春市,18946648882,长春市汽车经济技术开发区花之都鲜花坊,长春市,杨柳大街与飞跃路交汇处工商银行自助银行西侧,353985126,http://www.zhuandan.com/Stores/79505,,zhuandan.com,杨柳大街与飞跃路交汇处工商银行自助银行西侧,http://www.zhuandan.com/Stores/flowers?&p=89
北京,北京,15136929949,北京朝阳区浪漫情缘鲜花店,朝阳区,北京市朝阳区酒仙桥,2020597878,http://www.zhuandan.com/Stores/14954,,zhuandan.com,酒仙桥,http://www.zhuandan.com/Stores/flowers?&p=1
浙江,嘉兴市,13967326690,嘉兴南湖区宏兴花坊,南湖区,城南路231号宏兴花坊,279733851,http://www.zhuandan.com/Stores/84024,,zhuandan.com,城南路231号宏兴花坊,http://www.zhuandan.com/Stores/flowers?&p=87
四川,乐山市,15281902689,乐山市情缘鲜花坊,市中区,青果山社区,2861513550,http://www.zhuandan.com/Stores/30158,,zhuandan.com,青果山社区,http://www.zhuandan.com/Stores/flowers?&p=85
吉林,长春市,17390906195,长春二道区梵花花坊,二道区,东四环路与洋浦大街交叉口南150米梵花·flower,416098721,http://www.zhuandan.com/Stores/80530,,zhuandan.com,东四环路与洋浦大街交叉口南150米梵花·flower,http://www.zhuandan.com/Stores/flowers?&p=89
四川,成都市,18782288859,成都青羊区琪卉花坊,青羊区,百花西路1号,515188211,http://www.zhuandan.com/Stores/22958,,zhuandan.com,百花西路1号,http://www.zhuandan.com/Stores/flowers?&p=1
广东,深圳市,18025339204,深圳福田区花间语花舍,福田区,八卦三路与八卦路交叉口西南50米八卦岭工业区511栋23号,396045138,http://www.zhuandan.com/Stores/74337,,zhuandan.com,八卦三路与八卦路交叉口西南50米八卦岭工业区511栋23号,http://www.zhuandan.com/Stores/flowers?&p=88
重庆,重庆郊县,13658299349,彭水县她和花,彭水县,重庆市彭水苗族土家族自治县绍庆街道下坝街24号(插旗街与下坝街交叉口北侧136米),824956284,http://www.zhuandan.com/Stores/54569,,zhuandan.com,彭水苗族土家族自治县绍庆街道下坝街24号(插旗街与下坝街交叉口北侧136米),http://www.zhuandan.com/Stores/flowers?&p=82
陕西,汉中市,13891653959,汉中市花之缘,汉台区,陕西省汉中市汉台区前进路中段电信大厦向东100米路北,3144262490,http://www.zhuandan.com/Stores/40252,,zhuandan.com,前进路中段电信大厦向东100米路北,http://www.zhuandan.com/Stores/flowers?&p=87
江苏,南京市,18051989684,南京秦淮区心贝花艺,秦淮区,江苏省南京市秦淮区内桥湾66号,1838947193,http://www.zhuandan.com/Stores/13013,,zhuandan.com,内桥湾66号,http://www.zhuandan.com/Stores/flowers?&p=85
上海,上海,13524215761,上海美美花屋,松江区,上海市松江区小昆山镇平原街188号清河新村,1178609287,http://www.zhuandan.com/Stores/52117,,zhuandan.com,小昆山镇平原街188号清河新村,http://www.zhuandan.com/Stores/flowers?&p=89
广东,深圳市,15220222775,深圳福田区桐馨花店,福田区,南园街道滨河新村25栋,597161902,http://www.zhuandan.com/Stores/44150,,zhuandan.com,南园街道滨河新村25栋,http://www.zhuandan.com/Stores/flowers?&p=1
广东,江门市,13534777382,江门蓬江区文华飞鲜花店,蓬江区,广东省江门市美景街11号（市中心地带）,858021232,http://www.zhuandan.com/Stores/7524,,zhuandan.com,美景街11号（市中心地带）,http://www.zhuandan.com/Stores/flowers?&p=88
山东,青岛市,13869856626,青岛黄岛区花千度鲜花店,黄岛区,长江中路102号,1148169428,http://www.zhuandan.com/Stores/79148,,zhuandan.com,长江中路102号,http://www.zhuandan.com/Stores/flowers?&p=82
广东,广州市,13168888720,广州海珠区蝶之恋,海珠区,广东省广州市海珠区新港街道新港西路39号晓港住宅小区(新港西路)(攀桂街与怡乐六巷交叉口西侧30米),494598267,http://www.zhuandan.com/Stores/63155,,zhuandan.com,新港街道新港西路39号晓港住宅小区(新港西路)(攀桂街与怡乐六巷交叉口西侧30米),http://www.zhuandan.com/Stores/flowers?&p=80
重庆,重庆市,13452845606,重庆渝北区雾分花店,渝北区,碧桂园嘉誉,1435987719,http://www.zhuandan.com/Stores/76061,,zhuandan.com,碧桂园嘉誉,http://www.zhuandan.com/Stores/flowers?&p=86
广东,广州市,13302301881,广州番禺区花友集花店,番禺区,广州市番禺区市桥东沙路148号铺,523353814,http://www.zhuandan.com/Stores/607,,zhuandan.com,市桥东沙路148号铺,http://www.zhuandan.com/Stores/flowers?&p=83
湖北,武汉市,18561670539,武汉汉阳区媛梦花艺,汉阳区,龙阳一号汉口银行旁边,674539827,http://www.zhuandan.com/Stores/69749,,zhuandan.com,龙阳一号汉口银行旁边,http://www.zhuandan.com/Stores/flowers?&p=79
湖北,武汉市,13886100631,武汉洪山区幸子花卉,洪山区,湖北省武汉市洪山区水域天际(建安街与文治街交叉口西侧39米),1291996917,http://www.zhuandan.com/Stores/13030,,zhuandan.com,水域天际(建安街与文治街交叉口西侧39米),http://www.zhuandan.com/Stores/flowers?&p=81
上海,上海,13611866834,上海徐汇区云晨花卉,徐汇区,上海市徐汇区康健路139号,273977442,http://www.zhuandan.com/Stores/88745,,zhuandan.com,康健路139号,http://www.zhuandan.com/Stores/flowers?&p=84
上海,上海,13524147088,上海宝山区上大鲜花婚庆,宝山区,上海市宝山区大场镇聚丰园路469号祁连二村B街坊(祁中路与聚丰园路交叉口东侧14米),1396047692,http://www.zhuandan.com/Stores/30530,,zhuandan.com,大场镇聚丰园路469号祁连二村B街坊(祁中路与聚丰园路交叉口东侧14米),http://www.zhuandan.com/Stores/flowers?&p=87
山东,青岛市,13105138085,青岛莱西市幸福花缘莱西店,莱西市,威海东路公安局西50米路北幸福花缘,171468044,http://www.zhuandan.com/Stores/14552,,zhuandan.com,威海东路公安局西50米路北幸福花缘,http://www.zhuandan.com/Stores/flowers?&p=85
山东,青岛市,13210855686,青岛市北区明云花梦谷,市北区,山东省青岛市市北区辽宁路街道润佳时尚快捷宾馆银街下沉广场(临淄路与益都路交叉口西南方向28米),379234018,http://www.zhuandan.com/Stores/16796,,zhuandan.com,北区辽宁路街道润佳时尚快捷宾馆银街下沉广场(临淄路与益都路交叉口西南方向28米),http://www.zhuandan.com/Stores/flowers?&p=89
四川,成都市,15982243782,成都市武侯区幸福美鲜花,武侯区,成都市武侯区双丰中路263号附6-7号幸福美鲜花,"898146536,278186499",http://www.zhuandan.com/Stores/13546,,zhuandan.com,双丰中路263号附6-7号幸福美鲜花,http://www.zhuandan.com/Stores/flowers?&p=1
陕西,西安市,13772057868,陕西西安碑林区久久花艺,碑林区,西安市咸宁西路46号西安交通大学,1376346464,http://www.zhuandan.com/Stores/32808,,zhuandan.com,咸宁西路46号西安交通大学,http://www.zhuandan.com/Stores/flowers?&p=78
江苏,南京市,18013398067,南京市江宁区南京清迈花坊,江宁区,禄口街道鸣鹤路12号(禄口派出所对面)朗诗青春街区商铺51108,1352218112,http://www.zhuandan.com/Stores/65230,,zhuandan.com,禄口街道鸣鹤路12号(禄口派出所对面)朗诗青春街区商铺51108,http://www.zhuandan.com/Stores/flowers?&p=77
福建,漳州市,13489664992,漳州市龙文花丝语花坊,龙文区,新浦东路联丰浩苑17a2号店,840522514,http://www.zhuandan.com/Stores/10342,,zhuandan.com,新浦东路联丰浩苑17a2号店,http://www.zhuandan.com/Stores/flowers?&p=88
重庆,重庆市,15223016390,重庆沙坪坝区果红园林,沙坪坝区,康城北路与康城路交叉口西南50米果红园林,403196033,http://www.zhuandan.com/Stores/57905,,zhuandan.com,康城北路与康城路交叉口西南50米果红园林,http://www.zhuandan.com/Stores/flowers?&p=82
湖北,孝感市,15072573987,孝感市诗情花艺,孝南区,湖北省孝感市城站路三里棚邮局对面诗情花艺,765913408,http://www.zhuandan.com/Stores/38598,,zhuandan.com,城站路三里棚邮局对面诗情花艺,http://www.zhuandan.com/Stores/flowers?&p=80
山东,潍坊市,13963693263,潍坊市花缘鲜花店,奎文区,潍坊市政府东临,"1528902497,577270542,376009150",http://www.zhuandan.com/Stores/9504,,zhuandan.com,政府东临,http://www.zhuandan.com/Stores/flowers?&p=86
广东,广州市,13929180186,广州市然野鲜花坊,天河区,广东省广州市天河区兴华街道黄猄坳上街137-1号地铁三号线梅花园站拆迁安置房,918692958,http://www.zhuandan.com/Stores/54379,,zhuandan.com,兴华街道黄猄坳上街137-1号地铁三号线梅花园站拆迁安置房,http://www.zhuandan.com/Stores/flowers?&p=83
河南,郑州市,13203732985,郑州市冬儿花艺鲜花店,二七区,陇海中路与陇海快速路出口交叉口南50米鑫苑·鑫都汇(北门),2354342108,http://www.zhuandan.com/Stores/45685,,zhuandan.com,陇海中路与陇海快速路出口交叉口南50米鑫苑·鑫都汇(北门),http://www.zhuandan.com/Stores/flowers?&p=79
浙江,衢州市,13675713355,衢州柯城区兴雅花行,柯城区,须江路54一56号,779880508,http://www.zhuandan.com/Stores/3069,,zhuandan.com,须江路54一56号,http://www.zhuandan.com/Stores/flowers?&p=81
广东,广州市,15914391585,广州南沙区八号花舍,南沙区,双山大道19号,986312904,http://www.zhuandan.com/Stores/49324,,zhuandan.com,双山大道19号,http://www.zhuandan.com/Stores/flowers?&p=84
贵州,贵阳市,18286116013,贵阳花溪区玫瑰花艺,花溪区,贵阳市花溪区徐家冲玫瑰花艺。,2020119637,http://www.zhuandan.com/Stores/58440,,zhuandan.com,徐家冲玫瑰花艺。,http://www.zhuandan.com/Stores/flowers?&p=87
天津,天津,18902151986,天津蓟州区花枝俏花店,蓟州区,天津市蓟州区渔阳鼓楼,348890636,http://www.zhuandan.com/Stores/39394,,zhuandan.com,渔阳鼓楼,http://www.zhuandan.com/Stores/flowers?&p=85
江苏,南京市,13951629718,南京秦淮区楠开花开,秦淮区,秦淮区风光带,614724845,http://www.zhuandan.com/Stores/45479,,zhuandan.com,风光带,http://www.zhuandan.com/Stores/flowers?&p=89
广东,深圳市,13631628230,深圳福田区久久鲜花,福田区,深圳市福田区福华一路中心商务大厦,1587809052,http://www.zhuandan.com/Stores/7629,,zhuandan.com,福华一路中心商务大厦,http://www.zhuandan.com/Stores/flowers?&p=1
province,city,tel,name,district,origin_address,qq,shop_url,img_tel,source,address,source_url
天津,天津,13352066718,天津武清区鑫有鲜花店,武清区,梅厂镇农贸市场38号鑫海花卉礼品,1490248784,http://www.zhuandan.com/Stores/71992,,zhuandan.com,梅厂镇农贸市场38号鑫海花卉礼品,http://www.zhuandan.com/Stores/flowers?&p=87
北京,北京,18710119960,北京朝阳区欧艺鲜花坊,朝阳区,北京市朝阳区惠新西街南口，天利宏市场,1711461047,http://www.zhuandan.com/Stores/11265,,zhuandan.com,惠新西街南口，天利宏市场,http://www.zhuandan.com/Stores/flowers?&p=1
浙江,嘉兴市,13967326690,嘉兴南湖区宏兴花坊,南湖区,城南路231号宏兴花坊,279733851,http://www.zhuandan.com/Stores/84024,,zhuandan.com,城南路231号宏兴花坊,http://www.zhuandan.com/Stores/flowers?&p=87
上海,上海,18521535158,上海市长宁区馨艺鲜花,长宁区,上海市长宁区新泾镇淞虹路685弄绿园一村34号103,1102560144,http://www.zhuandan.com/Stores/13865,,zhuandan.com,新泾镇淞虹路685弄绿园一村34号103,http://www.zhuandan.com/Stores/flowers?&p=1
广东,广州市,15018455963,广州越秀区二八花艺,越秀区,广州市越秀区水荫路12号,"546859605,297352000",http://www.zhuandan.com/Stores/12783,,zhuandan.com,水荫路12号,http://www.zhuandan.com/Stores/flowers?&p=1
四川,乐山市,15281902689,乐山市情缘鲜花坊,市中区,青果山社区,2861513550,http://www.zhuandan.com/Stores/30158,,zhuandan.com,青果山社区,http://www.zhuandan.com/Stores/flowers?&p=85
上海,上海,13524147088,上海宝山区上大鲜花婚庆,宝山区,上海市宝山区大场镇聚丰园路469号祁连二村B街坊(祁中路与聚丰园路交叉口东侧14米),1396047692,http://www.zhuandan.com/Stores/30530,,zhuandan.com,大场镇聚丰园路469号祁连二村B街坊(祁中路与聚丰园路交叉口东侧14米),http://www.zhuandan.com/Stores/flowers?&p=87
上海,上海,18221496557,上海258鲜花,普陀区,嘉定区江桥镇曹安公路1777号美城广场B区一楼1038--1039--1040房间,1275888453,http://www.zhuandan.com/Stores/14930,,zhuandan.com,嘉定区江桥镇曹安公路1777号美城广场B区一楼1038--1039--1040房间,http://www.zhuandan.com/Stores/flowers?&p=1
江苏,南京市,18051989684,南京秦淮区心贝花艺,秦淮区,江苏省南京市秦淮区内桥湾66号,1838947193,http://www.zhuandan.com/Stores/13013,,zhuandan.com,内桥湾66号,http://www.zhuandan.com/Stores/flowers?&p=85
重庆,重庆市,13452845606,重庆渝北区雾分花店,渝北区,碧桂园嘉誉,1435987719,http://www.zhuandan.com/Stores/76061,,zhuandan.com,碧桂园嘉誉,http://www.zhuandan.com/Stores/flowers?&p=86
广东,广州市,13302301881,广州番禺区花友集花店,番禺区,广州市番禺区市桥东沙路148号铺,523353814,http://www.zhuandan.com/Stores/607,,zhuandan.com,市桥东沙路148号铺,http://www.zhuandan.com/Stores/flowers?&p=83
贵州,贵阳市,18286116013,贵阳花溪区玫瑰花艺,花溪区,贵阳市花溪区徐家冲玫瑰花艺。,2020119637,http://www.zhuandan.com/Stores/58440,,zhuandan.com,徐家冲玫瑰花艺。,http://www.zhuandan.com/Stores/flowers?&p=87
广东,深圳市,18927408255,深圳罗湖区爱之意花坊,罗湖区,东门新园路14号东兴大厦,3515561248,http://www.zhuandan.com/Stores/28603,,zhuandan.com,东门新园路14号东兴大厦,http://www.zhuandan.com/Stores/flowers?&p=1
湖北,武汉市,13886100631,武汉洪山区幸子花卉,洪山区,湖北省武汉市洪山区水域天际(建安街与文治街交叉口西侧39米),1291996917,http://www.zhuandan.com/Stores/13030,,zhuandan.com,水域天际(建安街与文治街交叉口西侧39米),http://www.zhuandan.com/Stores/flowers?&p=81
上海,上海,13611866834,上海徐汇区云晨花卉,徐汇区,上海市徐汇区康健路139号,273977442,http://www.zhuandan.com/Stores/88745,,zhuandan.com,康健路139号,http://www.zhuandan.com/Stores/flowers?&p=84
山东,青岛市,13105138085,青岛莱西市幸福花缘莱西店,莱西市,威海东路公安局西50米路北幸福花缘,171468044,http://www.zhuandan.com/Stores/14552,,zhuandan.com,威海东路公安局西50米路北幸福花缘,http://www.zhuandan.com/Stores/flowers?&p=85
山东,潍坊市,13963693263,潍坊市花缘鲜花店,奎文区,潍坊市政府东临,"1528902497,577270542,376009150",http://www.zhuandan.com/Stores/9504,,zhuandan.com,政府东临,http://www.zhuandan.com/Stores/flowers?&p=86
广东,广州市,13929180186,广州市然野鲜花坊,天河区,广东省广州市天河区兴华街道黄猄坳上街137-1号地铁三号线梅花园站拆迁安置房,918692958,http://www.zhuandan.com/Stores/54379,,zhuandan.com,兴华街道黄猄坳上街137-1号地铁三号线梅花园站拆迁安置房,http://www.zhuandan.com/Stores/flowers?&p=83
四川,绵阳市,13778066013,绵阳城区金蕊花坊,涪城区,涪城区御营坝御安街9-14,503327934,http://www.zhuandan.com/Stores/19532,,zhuandan.com,御营坝御安街9-14,http://www.zhuandan.com/Stores/flowers?&p=87
北京,北京,15136929949,北京朝阳区浪漫情缘鲜花店,朝阳区,北京市朝阳区酒仙桥,2020597878,http://www.zhuandan.com/Stores/14954,,zhuandan.com,酒仙桥,http://www.zhuandan.com/Stores/flowers?&p=1
